cafe_name,address,gu_name,latitude,longitude
랩,서울 강남구 논현로 636 이디야빌딩,강남구,37.510475,127.0330131
개포동역점,서울 강남구 개포로82길 11 삼우빌딩 1층,강남구,37.4885648,127.0674601
학동역점,서울 강남구 학동로 219 2층,강남구,37.5149993,127.0331486
선릉역점,서울 강남구 테헤란로 332 hj타워,강남구,37.5037746,127.0481921
강남대치점,서울 강남구 역삼로 415 성진빌딩 1층,강남구,37.5012813,127.0524213
역삼플래티넘점,서울 강남구 테헤란로4길 46 쌍용플래티넘밸류,강남구,37.4955423,127.0304041
대청역점,서울 강남구 개포로109길 34,강남구,37.494206,127.0776509
신사역점,서울 강남구 압구정로2길 62,강남구,37.5177801,127.0214559
청담역점,서울 강남구 삼성로 721,강남구,37.5200643,127.049161
강남구청역아이티웨딩점,서울 강남구 학동로 338 강남파라곤 111호,강남구,37.5165899,127.0402809
삼성중앙역점,서울 강남구 삼성로 608 1층,강남구,37.5138943,127.0533175
삼성동점,서울 강남구 테헤란로88길 10 1층 101호,강남구,37.5068487,127.0594706
역삼중앙점,서울 강남구 언주로81길 8 1층,강남구,37.5003525,127.0428763
역삼점,서울 강남구 논현로72길 13 M SPACE 빌딩,강남구,37.4958391,127.0405671
강남율현점,서울 강남구 밤고개로21길 8 세곡프라자 1층,강남구,37.4735487,127.1078637
일원동점,서울 강남구 양재대로27길 20 이디야커피 일원동점,강남구,37.490409,127.0816403
강남논현학동점,서울 강남구 논현로131길 28 1층,강남구,37.5140837,127.0281346
역삼역점,서울 강남구 테헤란로25길 17,강남구,37.5018023,127.0352648
삼성한전점,서울 강남구 테헤란로107길 11 성보타워 1층 105호,강남구,37.5104302,127.0650644
한티역점,서울 강남구 도곡로69길 8,강남구,37.4979593,127.0561457
도산사거리점,서울 강남구 언주로148길 14 1층 이디야커피 도산사거리점,강남구,37.5206335,127.0361667
역삼월드점,서울 강남구 역삼로52길 14 도곡프라자 1층 이디야커피 역삼월드점,강남구,37.4985105,127.0480048
청담사거리점,서울 강남구 도산대로 521,강남구,37.5248741,127.0504024
학동제마점,서울 강남구 학동로34길 22 1층,강남구,37.5131191,127.0336708
삼성대치점,서울 강남구 삼성로64길 32 주성빌딩 1층,강남구,37.5003851,127.0630387
역삼충현점,서울 강남구 논현로98길 7,강남구,37.5037681,127.0363736
을지병원사거리점,서울 강남구 도산대로30길 7 ABS 빌딩,강남구,37.5193861,127.0294489
강남YMCA점,서울 강남구 봉은사로37길 29 뜨레빌 빌라,강남구,37.5099441,127.0357371
강남도산점,서울 강남구 도산대로37길 20 1층,강남구,37.5222808,127.0315014
건설회관점,서울 강남구 언주로 711 1층,강남구,37.5174578,127.0346681
포이사거리점,서울 강남구 개포로 218,강남구,37.4785043,127.0466279
도곡2동점,서울 강남구 논현로 142 동현빌딩,강남구,37.4824282,127.0430371
고덕강일2지구점,"서울 강동구 아리수로93나길 76 SB메디컬타워 106호, 107호",강동구,37.5724703,127.1759358
강동고덕교차로점,서울 강동구 고덕로 421,강동구,37.5574421,127.1725853
길동사거리점,서울 강동구 천호대로 1132,강동구,37.5340784,127.1369884
길동역점,서울 강동구 양재대로 1471,강동구,37.5373655,127.1392909
천호초교사거리,서울 강동구 구천면로 304 일주빌딩,강동구,37.5467197,127.1348298
천호로데오점,서울 강동구 천호대로 1027 동원빌딩 1층,강동구,37.5381742,127.1263458
올림픽북문점,서울 강동구 성안로 7 강림빌딩,강동구,37.5245538,127.1289158
명일역점,서울 강동구 구천면로 424,강동구,37.5503475,127.1455974
천호중앙점,서울 강동구 올림픽로 660 1층 105호,강동구,37.5401895,127.124472
고덕점,서울 강동구 동남로75길 19 명일빌딩,강동구,37.5541286,127.1551948
강동성내점,서울 강동구 풍성로 162 1층,강동구,37.5305147,127.1298686
명일중앙점,서울 강동구 상암로 210 명일현대종합상가,강동구,37.5462983,127.1458016
보훈병원점,서울 강동구 명일로 110 둔촌동암펠로스타워,강동구,37.5288574,127.1432144
암사중앙점,서울 강동구 암사길 50 제이빌더스,강동구,37.5516888,127.1349516
강동역점,서울 강동구 천호대로 1065 강동상떼빌,강동구,37.5370233,127.1304648
천호현대점,서울 강동구 올림픽로 665 대일빌딩,강동구,37.5409236,127.1238914
고덕그라시움후문점,서울 강동구 동남로82길 121 1층,강동구,37.5603995,127.1637165
강일점,"서울 강동구 아리수로93길 19 105, 106호",강동구,37.5653807,127.174118
길동중앙점,서울 강동구 명일로 200 1층 101호,강동구,37.5365498,127.1459489
둔촌점,서울 강동구 양재대로 1377 1층 9호,강동구,37.5292243,127.1362754
강동구청점,서울 강동구 성내로6길 20 1층 105호,강동구,37.528912,127.1223551
천호1동점,서울 강동구 구천면로34길 43,강동구,37.542549,127.1335883
가오리역점,서울 강북구 삼각산로 108 이디야가오리역점,강북구,37.6406045,127.0161825
수유역점,서울 강북구 도봉로 355,강북구,37.6393494,127.026722
미아꿈의숲해링턴점,서울 강북구 오현로 45 108동 상가 2-7호,강북구,37.6190199,127.0342979
북한산점,서울 강북구 4.19로 85 1층 이디야 커피,강북구,37.644777,127.0056188
수유사거리점,서울 강북구 덕릉로 82,강북구,37.6344222,127.02286
미아역점,서울 강북구 도봉로 207,강북구,37.6270618,127.0254928
우이역도선사점,서울 강북구 삼양로173길 21,강북구,37.6625807,127.0113698
번동점,서울 강북구 오현로 194,강북구,37.6288428,127.0398909
한신대역점,서울 강북구 덕릉로 31,강북구,37.6343204,127.0170047
미아중앙점,서울 강북구 도봉로 128 광제약국,강북구,37.6204514,127.0287639
화곡로점,서울 강서구 화곡로 133 삼정빌딩,강서구,37.5408395,126.8364944
마곡퀸즈파크9점,서울 강서구 공항대로 247 마곡퀸즈파크 C동 4층 409호,강서구,37.5593135,126.8352391
화곡사거리점,서울 강서구 곰달래로 135 1층 이디야 화곡사거리점,강서구,37.5307593,126.8479251
마곡헤리움점,서울 강서구 마곡중앙5로1길 25 108호,강서구,37.5692784,126.8261367
파인스퀘어점,서울 강서구 마곡중앙4로 22 파인스퀘어 1층 A동 124~126호,강서구,37.5582828,126.8290099
가양역점,서울 강서구 양천로 500 노블리움오피스텔 1층 111호,강서구,37.560546,126.8555608
공항시장역점,서울 강서구 방화동로 37 메디스타워,강서구,37.5641899,126.8106933
방화사거리점,서울 강서구 양천로 72,강서구,37.5732172,126.8117923
개화산점,서울 강서구 양천로 28 벽산에어트리움 본관동 1층 101~103호,강서구,37.5722167,126.8067625
강서구청점,서울 강서구 화곡로 292 서광프리메라 104호,강서구,37.5501954,126.8487338
강서nc점,서울 강서구 강서로54길 11,강서구,37.5594275,126.8393628
우장산동점,"서울 강서구 우현로 15 1층, 102~103호",강서구,37.5471643,126.8436286
까치산로점,"서울 강서구 까치산로 182 101호, 102호",강서구,37.5532965,126.8538497
등촌역점,서울 강서구 등촌로 217 희망찬교회,강서구,37.5491811,126.8633223
강서한강자이점,서울 강서구 양천로 401 강서한강자이 타워 B동 108-2,강서구,37.5656521,126.8476921
화곡본동시장점,서울 강서구 까치산로4길 11 1층,강서구,37.5422247,126.844267
렘넌트문화센터점,서울 강서구 화곡로63길 65 2층 렘넌트문화센터점,강서구,37.5579827,126.8492023
방화역점,서울 강서구 금낭화로 145 126호,강서구,37.5783237,126.812803
방화동로점,서울 강서구 방화동로 95 101호,강서구,37.5690294,126.8126288
염창동점,서울 강서구 양천로 684 1층,강서구,37.5506388,126.871957
신방화중앙점,서울 강서구 방화대로34길 92,강서구,37.5708584,126.8214511
등촌3동성당점,서울 강서구 강서로56길 110 1층 이디야커피 등촌3동성당점,강서구,37.5588811,126.8448925
신림패션문화점,서울 관악구 봉천로6길 24,관악구,37.4886328,126.9254443
봉천역점,서울 관악구 남부순환로 1725,관악구,37.4826935,126.9419084
서울대중앙점,서울 관악구 남부순환로216길 2,관악구,37.4813881,126.949008
낙성대역점,서울 관악구 남부순환로 1915 1층 이디야커피,관악구,37.4779175,126.9622236
관악산으뜸점,서울 관악구 신림로 21 으뜸공원휴게소 2층,관악구,37.4684556,126.9449779
신림미성점,서울 관악구 난곡로 250,관악구,37.4765399,126.915992
청룡중앙점,서울 관악구 쑥고개로 80 1층 이디야커피,관악구,37.4792276,126.9452841
신림역점,서울 관악구 신림로 312,관악구,37.4822003,126.9301574
신대방역점,서울 관악구 난곡로 368 2층,관악구,37.4868603,126.9137548
신림대학동점,서울 관악구 호암로26길 17,관악구,37.4707574,126.9346276
보라매중앙점,서울 관악구 보라매로 62 보라매삼성아파트,관악구,37.494292,126.9281576
신림문화교점,서울 관악구 신림로46길 1 지하1층,관악구,37.4784652,126.9330301
관악하나로마트점,서울 관악구 남부순환로 1369 관악농협농산물백화점,관악구,37.4801043,126.9028507
녹두거리점,서울 관악구 신림로 91 1층,관악구,37.4703135,126.9390777
관악우성점,서울 관악구 관악로 232,관악구,37.4849775,126.9560254
신림신화교점,서울 관악구 신림로 199 1층,관악구,37.4755356,126.9362061
난곡사거리점,서울 관악구 남부순환로 1444,관악구,37.4809367,126.911272
봉일시장점,서울 관악구 은천로 23,관악구,37.486409,126.9379366
신림별빛점,서울 관악구 관천로 34 1~3층,관악구,37.4830683,126.9278046
남현홈플러스점,서울 관악구 과천대로 909,관악구,37.4715201,126.9824756
봉천현대시장점,서울 관악구 양녕로 39-1,관악구,37.4857159,126.9467547
건대역점,서울 광진구 아차산로 229 한림타워,광진구,37.5408305,127.0690816
구의역점,서울 광진구 구의로 4,광진구,37.5383661,127.0893046
군자역점,서울 광진구 능동로 290 삼일빌딩,광진구,37.5555794,127.0789874
건대스타시티점,서울 광진구 아차산로 272 더샵스타시티 1층 5호 이디야커피,광진구,37.5385583,127.0729962
중곡중앙점,서울 광진구 능동로 330 우진빌딩,광진구,37.5589534,127.0807503
건대스타시티2호점,서울 광진구 능동로 92 롯데백화점 지하2층,광진구,37.5390734,127.0711481
동서울터미널점,서울 광진구 강변역로4길 34 현대하이엘,광진구,37.5341607,127.0922453
아차산역점,서울 광진구 천호대로 663 1층 이디야커피,광진구,37.551824,127.090263
자양동점,서울 광진구 자양로 46 101호 이디야커피,광진구,37.5321972,127.0859724
중곡대원점,서울 광진구 용마산로 111 1층,광진구,37.5635966,127.0866632
세종대후문점,서울 광진구 군자로 109 1층 이디야커피 세종대후문점,광진구,37.5528792,127.0720159
구의자양로점,서울 광진구 자양로 251 1층 이디야커피,광진구,37.5490046,127.0893253
구의사거리점,서울 광진구 광나루로 508 일진빌딩 1층,광진구,37.5448029,127.0859863
중곡신성점,서울 광진구 용마산로 37 이안빌딩 1층,광진구,37.5570247,127.0877389
자양우성점,서울 광진구 자양번영로 34 제이원하이텔,광진구,37.532706,127.0758021
자양사거리점,서울 광진구 자양로 81,광진구,37.5351141,127.08385
고척스카이돔점,서울 구로구 경인로 397,구로구,37.4976285,126.8640809
오류북부역점,서울 구로구 경인로20길 6 포스시티,구로구,37.495415,126.8433978
구로구청점,서울 구로구 가마산로25길 9,구로구,37.4966453,126.890315
개봉역점,서울 구로구 남부순환로97길 11 2층,구로구,37.4942568,126.8583773
신도림테크노마트점,서울 구로구 새말로 97 1층,구로구,37.5070143,126.8902633
개봉현대점,서울 구로구 개봉로 69 2층,구로구,37.4919134,126.8556252
구로역광장점,서울 구로구 경인로 572,구로구,37.5033033,126.8811111
구일역점,서울 구로구 구일로 110 해원리버파크,구로구,37.4950768,126.8720017
구로궁동점,서울 구로구 오리로 1304 1층,구로구,37.4977829,126.8293987
고척사거리점,서울 구로구 고척로 228-6 1층,구로구,37.5058818,126.8582991
성공회대점,서울 구로구 연동로 312 2층 이디야 성공회대점,구로구,37.4877465,126.8243859
구로이마트점,서울 구로구 디지털로32길 43 구로 이마트 3층,구로구,37.4844087,126.8979273
구로미성점,"서울 구로구 구로중앙로 228 기임빌딩 106, 107, 108호",구로구,37.5061695,126.8766198
신도림메르디앙점,서울 구로구 신도림로 65 101호,구로구,37.5095584,126.8820617
구로코레일점,서울 구로구 구로중앙로 174,구로구,37.5024345,126.8814915
구로NC점,서울 구로구 구로동로 240 세일빌딩 1층,구로구,37.4999929,126.8827321
시흥동점,서울 금천구 시흥대로 198,금천구,37.4516203,126.9021732
가산하이엔드10차점,서울 금천구 가산디지털1로 30 에이스하이엔드타워10차 102호,금천구,37.4688108,126.8875023
가산오거리점,서울 금천구 가산로 155 이디야커피 가산오거리점,금천구,37.4788637,126.8901018
독산동점,서울 금천구 독산로 218 1층,금천구,37.4663741,126.9019933
가산두산위브점,서울 금천구 가산로 111 1층,금천구,37.4756322,126.8929356
가산월드점,서울 금천구 가산디지털2로 123 월드메르디앙2차 101호,금천구,37.4787235,126.878706
가산리더스타워점,서울 금천구 벚꽃로 286 지하 1층,금천구,37.4803344,126.8841305
은행나무사거리점,서울 금천구 금하로 690,금천구,37.4518146,126.9066471
박미삼거리점,서울 금천구 시흥대로 150 1층 이디야커피,금천구,37.4476364,126.9036706
금천롯데마트점,서울 금천구 시흥대로 291 L층,금천구,37.4599811,126.8972935
석수푸르지오점,서울 금천구 삼성산길 11,금천구,37.4341058,126.9048356
시흥유통센터점,서울 금천구 시흥대로 88,금천구,37.4418924,126.9039214
시흥중앙점,서울 금천구 금하로 750,금천구,37.4490446,126.9141297
세광교회점,서울 금천구 독산로 124,금천구,37.4583341,126.9055382
독산동쌈지공원점,서울 금천구 독산로 276 102호,금천구,37.4713615,126.9032815
가산벽산점,서울 금천구 벚꽃로 244 벽산디지털밸리5차 1층 104-1호,금천구,37.4766757,126.8858938
상계역사거리점,서울 노원구 한글비석로 409,노원구,37.6611482,127.0708917
노원중앙점,서울 노원구 노원로 452 1층 이디야 노원중앙점,노원구,37.6570303,127.066952
태릉입구역점,서울 노원구 공릉로 105 1층,노원구,37.6196134,127.077903
수락산역점,서울 노원구 동일로 1689 하이베라스 1층,노원구,37.6791235,127.0549618
중계점,서울 노원구 동일로204가길 34 씨앤미,노원구,37.6407272,127.06816
서울여대점,서울 노원구 노원로 3,노원구,37.6219901,127.0866513
당고개역점,서울 노원구 상계로 313,노원구,37.6708398,127.0804056
상계동점,서울 노원구 한글비석로52길 8 1층,노원구,37.6648882,127.0664995
상계역점,서울 노원구 덕릉로 698 광현빌딩 1층 이디야커피,노원구,37.6598406,127.0756563
월계인덕점,서울 노원구 광운로22길 39,노원구,37.6298213,127.0588389
중계롯데우성점,서울 노원구 노원로22길 70 롯데우성아파트,노원구,37.6473177,127.0740087
상계상록스토아점,서울 노원구 동일로227길 26 상가동 푸드코트내,노원구,37.6683012,127.055611
원자력병원점,서울 노원구 공릉로46길 6 현대프라자,노원구,37.6269386,127.0795663
광운대점,서울 노원구 광운로 29 1층,노원구,37.6203251,127.0584417
공릉역점,서울 노원구 동일로192길 5,노원구,37.6260783,127.0734061
월계이마트점,서울 노원구 마들로3길 15,노원구,37.6265093,127.0619797
중계본동점,서울 노원구 중계로14바길 2 1층 일부,노원구,37.6498824,127.0825871
상계중앙점,서울 노원구 동일로 1650,노원구,37.6755013,127.0555486
도봉산점,서울 도봉구 도봉산길 18,도봉구,37.6875583,127.043742
쌍문역점,서울 도봉구 도봉로117길 4,도봉구,37.6494397,127.0347207
창동제일점,서울 도봉구 노해로70길 81,도봉구,37.6488305,127.0525697
창동학원가점,서울 도봉구 해등로16길 61 1층 이디야커피,도봉구,37.6551345,127.0433741
도봉중앙점,서울 도봉구 도봉로181길 18,도봉구,37.6841626,127.0449033
신창점,서울 도봉구 덕릉로 235 1층 이디야,도봉구,37.6389345,127.0381244
방학점,서울 도봉구 방학로 171 1층 이디야커피,도봉구,37.6621704,127.0332666
쌍문동점,서울 도봉구 노해로 162 1층,도봉구,37.6488751,127.0273186
선덕고사거리점,서울 도봉구 해등로 255 에벤에셀아파트,도봉구,37.6574763,127.0284807
창동역점,서울 도봉구 마들로11길 65 103호,도봉구,37.6534207,127.0496789
방학역점,서울 도봉구 도봉로153길 15 1층,도봉구,37.6698038,127.0425532
솔밭공원역점,서울 도봉구 삼양로 594 주함해븐빌 c-1동 1층 101호,도봉구,37.6560582,127.013557
덕성여대점,서울 도봉구 삼양로 542,도봉구,37.6516284,127.0129857
창동대우점,서울 도봉구 덕릉로63가길 30 1층,도봉구,37.6434919,127.0387521
창동하나로마트점,서울 도봉구 마들로11길 20 1층,도봉구,37.6551095,127.0508516
경희대점,서울 동대문구 경희대로 4 2층 이디야커피 경희대점,동대문구,37.5919173,127.0525312
장한평군자초교점,서울 동대문구 한천로2길 53,동대문구,37.5628489,127.0614209
회기역중앙점,서울 동대문구 회기로 193,동대문구,37.5901899,127.0574557
서울시립대점,서울 동대문구 서울시립대로 164 1층,동대문구,37.5833155,127.0548642
경희대캠퍼스점,서울 동대문구 경희대로 26 호텔관광대학 1층,동대문구,37.5964494,127.0525009
용두동사거리점,서울 동대문구 왕산로 68,동대문구,37.5774912,127.0309019
촬영소사거리점,서울 동대문구 답십리로 264 1층,동대문구,37.5722843,127.0695232
답십리사거리점,서울 동대문구 답십리로 145,동대문구,37.5730763,127.056128
청량리점,서울 동대문구 왕산로 225 미주상가,동대문구,37.582134,127.0472283
장안중앙점,서울 동대문구 사가정로25길 42 영림빌딩,동대문구,37.5806955,127.0709716
전농사거리점,서울 동대문구 사가정로 132,동대문구,37.5775995,127.0595372
장안동사거리점,서울 동대문구 답십리로 309 1층,동대문구,37.5723592,127.0748244
배봉초교사거리점,서울 동대문구 답십리로63길 131 1층,동대문구,37.5785102,127.0693591
이문점,서울 동대문구 신이문로 19,동대문구,37.6031419,127.0642539
답십리파크자이점,서울 동대문구 한천로 55 1층 이디야커피,동대문구,37.5669118,127.0618992
동대문구청점,서울 동대문구 천호대로 153-1 1층,동대문구,37.5736213,127.0406543
용두동점,서울 동대문구 고산자로 413-1,동대문구,37.5766647,127.0378985
장안중랑천점,서울 동대문구 장한로18길 32 1층,동대문구,37.5675417,127.0707904
신설동역점,서울 동대문구 천호대로 11-3 (신설동),동대문구,37.5750663,127.0249564
동부병원사거리점,서울 동대문구 무학로 104 1층 이디야,동대문구,37.5735158,127.0309115
사당역점,서울 동작구 동작대로7길 100,동작구,37.4771659,126.9775506
노량진CTS점,서울 동작구 노량진로 110 동작구의사회,동작구,37.5132094,126.9380558
흑석역점,서울 동작구 현충로 100-1 2층,동작구,37.5076525,126.9647299
신대방삼거리점,서울 동작구 상도로 78 1층,동작구,37.4995565,126.9291587
해군회관점,서울 동작구 여의대방로 194 1층,동작구,37.5042598,126.9222767
상도중앙점,서울 동작구 만양로 17 1층 101 102호,동작구,37.5061893,126.9472428
노량진드림스퀘어점,서울 동작구 노들로2길 7 C동 1층 113호,동작구,37.5141943,126.9385861
상도역점,서울 동작구 상도로 277,동작구,37.5028197,126.9483433
노들점,서울 동작구 노량진로 200 베스트고시텔,동작구,37.5129016,126.9479158
중앙대점,서울 동작구 흑석로 79,동작구,37.5070302,126.9584326
보라매점,서울 동작구 보라매로5가길 16 보라매아카데미타워,동작구,37.4913263,126.924075
남성역점,서울 동작구 사당로17가길 13,동작구,37.483808,126.9734519
노량진역사점,서울 동작구 노량진로 130 노량진역 지하1층,동작구,37.5135735,126.9408265
중앙대후문점,서울 동작구 흑석로 20 1층,동작구,37.504825,126.9530532
총신대점,서울 동작구 사당로16가길 96 이디야커피 총신대점,동작구,37.4851,126.9688365
상도파크엘점,서울 동작구 양녕로 220,동작구,37.5007546,126.9471696
대방역점,서울 동작구 노량진로 24 1층,동작구,37.5129086,126.9283485
보라매공원점,서울 동작구 여의대방로 90,동작구,37.4968093,126.9166701
마포공덕역점,서울 마포구 새창로 6,마포구,37.5420365,126.9505092
망원역점,서울 마포구 월드컵로 82-1,마포구,37.5563644,126.9101985
홍대청기와점,서울 마포구 월드컵북로 7 1층 이디야커피 홍대청기와점,마포구,37.5556083,126.9206539
망원중앙점,서울 마포구 월드컵로 147 한익빌딩,마포구,37.5608043,126.9054913
공덕롯데캐슬점,서울 마포구 마포대로 109,마포구,37.5450054,126.9512549
망리단길점,서울 마포구 포은로 81-1 S빌딩 1층,마포구,37.5543332,126.905284
합정역사거리점,서울 마포구 독막로2길 5 1층,마포구,37.548258,126.9148868
신촌그랑자이점,서울 마포구 대흥로 183 2층 이디야커피 신촌그랑자이점,마포구,37.5558232,126.9456344
성산점,서울 마포구 월드컵북로 137 1층 이디야커피,마포구,37.5648833,126.9116783
상암홈플러스점,서울 마포구 월드컵로 240 2층 이디야커피,마포구,37.5682885,126.897273
마포성산시영점,서울 마포구 월드컵북로 210 1층,마포구,37.5692375,126.905802
합정동점,서울 마포구 양화로6길 90 1층,마포구,37.5482344,126.9190796
애오개역점,서울 마포구 마포대로 208 1층 104호,마포구,37.5524901,126.956854
상암한샘점,서울 마포구 성암로13길 58,마포구,37.5757088,126.8977598
신촌하나로마트점,서울 마포구 신촌로 66 농협중앙회 1층,마포구,37.5560665,126.9331166
오벨리스크점,서울 마포구 마포대로 33 마포 한화 오벨리스크,마포구,37.5401813,126.9457259
상수역점,서울 마포구 와우산로 41-1 1층,마포구,37.548245,126.9228159
합정LIG점,서울 마포구 양화로1길 21,마포구,37.5495924,126.9104481
홈플러스합정점,서울 마포구 양화로 45 홈플러스 합정점 B1층 C24호,마포구,37.5510463,126.913739
마포점,서울 마포구 도화길 10 이디야,마포구,37.5398048,126.9474001
신촌숲아이파크점,서울 마포구 광성로 17 상가동 118호,마포구,37.551211,126.9338094
신촌역점,서울 서대문구 신촌로 87-20 1층,서대문구,37.5565131,126.9364771
충정로3가점,서울 서대문구 경기대로 26-26 201동 지하,서대문구,37.561138,126.9624299
명지대점,서울 서대문구 거북골로 35,서대문구,37.5793614,126.9239429
연남동점,서울 서대문구 연희로 42 재이손빌딩 102호,서대문구,37.5623704,126.9278837
서대문점,서울 서대문구 통일로 141 1.2층,서대문구,37.5669197,126.9652496
연세대점,서울 서대문구 연세로12길 10,서대문구,37.558863,126.9375299
신촌기차역점,서울 서대문구 신촌역로 35,서대문구,37.558976,126.9414765
서울간호대점,서울 서대문구 간호대로 8,서대문구,37.5966783,126.9488346
명지전문대점,서울 서대문구 가좌로 140,서대문구,37.584568,126.9242004
가재울중앙점,서울 서대문구 가재울미래로 2,서대문구,37.5728378,126.9176131
북가좌동점,서울 서대문구 증가로 257,서대문구,37.5834607,126.9115518
연희홍연길점,서울 서대문구 홍제천로 146-9 1층,서대문구,37.5763812,126.9300252
서대문구청점,서울 서대문구 연희로 237,서대문구,37.5782441,126.9356955
아현역점,서울 서대문구 신촌로37길 10 101호,서대문구,37.5576821,126.957128
서울고속버스터미널점,서울 서초구 신반포로 194,서초구,37.50568,127.0058468
신논현역점,서울 서초구 서초대로77길 55 에이프로스퀘어 1층,서초구,37.5021008,127.0244659
국립중앙도서관본관점,서울 서초구 반포대로 201,서초구,37.4974297,127.0031016
서초점,서울 서초구 서초대로48길 16,서초구,37.4920523,127.0113456
강남센트럴시티점,서울 서초구 신반포로 176 센트럴시티,서초구,37.5039351,127.002413
국립중앙도서관 디지털관점,서울 서초구 반포대로 201,서초구,37.4974297,127.0031016
방배중앙점,서울 서초구 동광로 1,서초구,37.4910819,126.9830337
잠원논현점,서울 서초구 신반포로 333 조훈빌딩,서초구,37.5109294,127.0201595
교대역점,서울 서초구 서초대로56길 22 성운빌딩,서초구,37.4934954,127.0171242
남부터미널점,서울 서초구 효령로60길 15 풍원빌딩,서초구,37.4847273,127.0188728
반포지하상가점,서울 서초구 신반포로 200 G-032호,서초구,37.5062203,127.0050517
양재중앙점,서울 서초구 강남대로 221 동성빌딩,서초구,37.4836886,127.0341274
서울교대점,서울 서초구 서초중앙로 89 미래빌딩 1층,서초구,37.4897752,127.0140954
예술의전당점,서울 서초구 반포대로 32 원일빌딩,서초구,37.4834471,127.0121344
내방역점,서울 서초구 서초대로 108,서초구,37.4875341,126.9942153
청계산입구역점,서울 서초구 청계산로 189,서초구,37.4483161,127.0553844
양재점,서울 서초구 남부순환로347길 38,서초구,37.4860296,127.0315045
방배역점,서울 서초구 방배로 87 1층 3호,서초구,37.4821718,126.9969232
서초우면중앙점,"서울 서초구 양재대로2길 100-11 103, 104호",서초구,37.4564594,127.0162572
함지박사거리점,서울 서초구 방배로 234 아이투비빌딩 1층,서초구,37.4941721,126.9899239
국립국악원점,서울 서초구 남부순환로 2364 국립국악원 예악당 1층 이디야,서초구,37.4778469,127.0088804
양재언남점,서울 서초구 동산로 60 매암빌딩,서초구,37.471705,127.045438
신사멀버리힐스점,서울 서초구 강남대로 589 멀버리힐스 E104호,서초구,37.5144416,127.0194112
우면동점,서울 서초구 바우뫼로 20 1층,서초구,37.4699915,127.0253044
서초법조타운점,서울 서초구 서초중앙로24길 7 동천빌딩,서초구,37.4948037,127.0145105
서초역점,서울 서초구 반포대로21길 23 세진빌딩,서초구,37.4877157,127.0085391
양재하나로마트점,서울 서초구 청계산로 10,서초구,37.4632288,127.0435302
왕십리비트플렉스점,서울 성동구 왕십리광장로 17,성동구,37.5614086,127.0384812
성수아카데미점,서울 성동구 성수이로 118 성수아카데미타워,성동구,37.5451805,127.0578482
왕십리역점,서울 성동구 왕십리로 309 왕십리역이스타빌,성동구,37.5613795,127.0345883
성수중앙점,서울 성동구 성수일로6길 47 103호,성동구,37.5443362,127.0552883
상왕십리역점,서울 성동구 무학봉15길 27 이디야,성동구,37.5637055,127.0301805
성수우리W타워점,서울 성동구 아차산로15길 19,성동구,37.5447562,127.0620831
응봉동점,서울 성동구 독서당로 381 현대종합상가 108호 이디야,성동구,37.5501216,127.0306043
성동구청점,서울 성동구 고산자로 269 신한넥스텔,성동구,37.5637233,127.0357904
왕십리센트라스점,서울 성동구 무학로 22 1층,성동구,37.5660857,127.0303204
마장동점,서울 성동구 고산자로 339-2 1층,성동구,37.5700236,127.0373698
마장역점,서울 성동구 마장로 293-1,성동구,37.5659538,127.0421891
논골사거리점,서울 성동구 난계로 35,성동구,37.5555287,127.0244859
옥수동점,서울 성동구 매봉길 12,성동구,37.5453087,127.0156973
신금호역점,서울 성동구 금호산길 64 1층 이디야커피,성동구,37.5538972,127.0196349
텐즈힐점,서울 성동구 무학로 33 텐즈힐 153동 102호,성동구,37.5688984,127.028242
답십리로데오점,서울 성동구 용답중앙15길 8 1층,성동구,37.5641144,127.0534514
석계중앙점,서울 성북구 화랑로40길 61 1층 이디야커피,성북구,37.6137732,127.0649645
성신여대점,서울 성북구 보문로34길 100,성북구,37.5912273,127.0208083
하월곡동점,서울 성북구 오패산로 16,성북구,37.6036669,127.0375728
성신여대역점,서울 성북구 동소문로17길 40,성북구,37.5939372,127.0159042
길음뉴타운점,서울 성북구 길음로 74 길음뉴타운 상가동 1층,성북구,37.6100532,127.0205837
장위중앙점,서울 성북구 장위로 35,성북구,37.6144683,127.0407855
월곡1동점,서울 성북구 오패산로 99,성북구,37.6107785,127.0352036
보문역점,서울 성북구 보문로 111,성북구,37.584943,127.0193581
돌곶이역점,서울 성북구 돌곶이로22길 3 1층,성북구,37.6102012,127.058114
동덕여대점,서울 성북구 화랑로 99,성북구,37.6034907,127.042701
고대개운점,서울 성북구 개운사길 30,성북구,37.5876966,127.02947
장위북서울꿈의숲점,서울 성북구 돌곶이로41가길 2,성북구,37.6186447,127.0456157
장위뉴타운점,서울 성북구 장월로 144-1 1층,성북구,37.6177115,127.0510532
고대점,서울 성북구 고려대로24길 35 1층 이디야커피 고대점,성북구,37.5846728,127.0295657
월곡동아점,서울 성북구 장월로1길 47,성북구,37.6062648,127.045697
정릉중앙점,서울 성북구 정릉로 251 명성빌딩,성북구,37.6047262,127.0119345
종암동점,서울 성북구 종암로 105,성북구,37.5995282,127.0339501
석관동점,서울 성북구 돌곶이로8길 22 상가 109호,성북구,37.6063625,127.0628977
안암래미안점,서울 성북구 보문로30가길 42 1층,성북구,37.5890109,127.022048
장위2동점,서울 성북구 화랑로25길 14,성북구,37.6093091,127.0524756
한성대점,서울 성북구 삼선교로10길 45 1층 이디야커피,성북구,37.5861862,127.0100338
장위동점,서울 성북구 월계로40길 7 104동,성북구,37.6229606,127.048374
고대타이거프라자점,서울 성북구 안암로 145 타이거프라자 2층 이디야,성북구,37.5899103,127.0318122
석촌역점,서울 송파구 송파대로 456 웅현빌딩,송파구,37.5072047,127.1058579
가락몰점,서울 송파구 중대로 55-2 가락몰3관 지상 3층,송파구,37.4916074,127.1149598
방이역점,서울 송파구 위례성대로18길 32 환복빌딩,송파구,37.5095701,127.1247407
삼전중앙점,"서울 송파구 백제고분로27길 5 1층, 2층",송파구,37.503676,127.0925971
송파파인타운점,서울 송파구 충민로2길 28 대진플라자 101호,송파구,37.4771603,127.1274554
잠실역점,서울 송파구 올림픽로 265 잠실역지하상가 B-4,송파구,37.5138593,127.1018578
석촌백제점,서울 송파구 백제고분로39길 15,송파구,37.5056613,127.1044637
가든파이브테크노관점,서울 송파구 충민로 66 현대시티몰 테크노관 3층,송파구,37.4776148,127.1249617
송파풍납점,서울 송파구 강동대로9길 17-1,송파구,37.5281003,127.1165434
송파문정점,서울 송파구 송이로 159 청맥빌딩 1층,송파구,37.4929657,127.1253654
서울삼성내과점,서울 송파구 백제고분로 126 오룡빌딩1층,송파구,37.5061748,127.0807789
올림픽공원점,서울 송파구 올림픽로 354 ISPACE 잠실2,송파구,37.516188,127.1097746
거여점,서울 송파구 오금로 497,송파구,37.4934867,127.1442011
가든파이브점,서울 송파구 충민로 10,송파구,37.4786598,127.1189685
잠실본동점,서울 송파구 백제고분로 172 승지빌딩,송파구,37.5047248,127.0858777
방이초교점,서울 송파구 가락로 280,송파구,37.5127428,127.1200324
송파올림픽훼밀리타운점,서울 송파구 중대로 24,송파구,37.4881257,127.1110591
송파위례점,"서울 송파구 위례광장로 188 아이온스퀘어 135, 136호",송파구,37.4810773,127.1424444
오금중앙점,서울 송파구 위례성대로22길 18 이시돌빌딩,송파구,37.5086886,127.1303706
가락중앙점,서울 송파구 송이로 87 1층 3호,송파구,37.4983477,127.1208106
위례포레샤인점,"서울 송파구 위례순환로 477 근린2상가 101,102호",송파구,37.4767112,127.1354268
올림픽프라자점,서울 송파구 양재대로 1222,송파구,37.515729,127.1310643
서울한방병원점,서울 송파구 법원로11길 32 1층,송파구,37.485501,127.1158535
오목교대학학원점,서울 양천구 오목로 319,양천구,37.5250831,126.8730778
남부지방법원점,서울 양천구 은행정로4길 25 SM엘루이아파트 상가 1층 102호,양천구,37.5214132,126.8625902
목동파라곤점,서울 양천구 목동서로 155 파라곤상가 지하1층 34호,양천구,37.5299683,126.8752425
목동센트럴아이파크위브점,서울 양천구 남부순환로 603 1층,양천구,37.5152223,126.8407033
목동신트리점,서울 양천구 신정로 312,양천구,37.5132891,126.8555404
신월사거리점,서울 양천구 남부순환로 353,양천구,37.5356772,126.8289334
양천구청점,서울 양천구 목동동로 63,양천구,37.5153184,126.8623249
강서초교점,서울 양천구 오목로 48,양천구,37.5220372,126.8429717
신월5동점,서울 양천구 화곡로 50 2층 이디야커피,양천구,37.5391828,126.8274587
신정서부점,서울 양천구 신정로11길 50-15,양천구,37.512278,126.8383836
목동파리공원점,서울 양천구 목동동로 379 광장상가,양천구,37.5356163,126.8787218
신정네거리점,서울 양천구 중앙로 282,양천구,37.5215562,126.8525901
목동아델리체점,서울 양천구 중앙로43길 14 A상가동 104호,양천구,37.5186675,126.8519476
목3동점,서울 양천구 목동중앙북로 38 롯데캐슬위너아파트,양천구,37.5467382,126.8673143
신월7동점,서울 양천구 지양로 79,양천구,37.5224293,126.8330031
목동신목점,서울 양천구 목동중앙로 85 강산아파트,양천구,37.5370105,126.8715085
영등포점,서울 영등포구 영중로 16-1 1층 이디야커피,영등포구,37.5178807,126.9061695
영등포 에이스점,서울 영등포구 경인로 775 영등포 에이스하이테크시티 2동 108호 이디야커피,영등포구,37.5147464,126.8975368
KBS별관점,서울 영등포구 국제금융로8길 27-9 동북빌딩,영등포구,37.5196767,126.928942
당산중앙점,서울 영등포구 당산로 159 1층,영등포구,37.5288596,126.8975877
영등포시장점,서울 영등포구 영등포로35가길 1,영등포구,37.521879,126.9041435
영등포홈플러스점,"서울 영등포구 당산로 42 ,",영등포구,37.5182376,126.8958979
서여의도점,서울 영등포구 국회대로72길 4 (아이비 피아빌딩),영등포구,37.530304,126.919932
당산버드나루점,서울 영등포구 버드나루로 87 미진오피스텔 102호,영등포구,37.5259676,126.9087214
도림점,서울 영등포구 도신로15길 40,영등포구,37.5086366,126.8965717
여의나루역점,서울 영등포구 여의나루로 113,영등포구,37.5260711,126.9308061
보라매역점,서울 영등포구 여의대방로 141 순흥빌딩,영등포구,37.4996874,126.9199717
신길썬프라자점,서울 영등포구 신길로 42 1층,영등포구,37.4964817,126.9086461
문래에이스점,서울 영등포구 선유로13길 25 1층 112호,영등포구,37.5189767,126.8862918
여의도역점,서울 영등포구 의사당대로 108 아일렉스상가 지하1층,영등포구,37.5210051,126.9238388
영등포역코레일점,서울 영등포구 경인로 846 영등포역 지하1층,영등포구,37.515668,126.907666
대림역점,서울 영등포구 도림로31길 2,영등포구,37.4925422,126.8959283
대림3동점,서울 영등포구 대림로 212 강림빌딩,영등포구,37.4996108,126.8981554
신길아이파크점,서울 영등포구 도림로 280 1층,영등포구,37.50294,126.9042301
당산역점,서울 영등포구 당산로 222 1층 이디야커피 당산역점,영등포구,37.5332737,126.9023723
선유도역점,서울 영등포구 양평로 126 신성빌딩,영등포구,37.5382385,126.8939337
한국수출입은행점,서울 영등포구 은행로 38 한국수출입은행 1층,영등포구,37.5286392,126.9234111
힐스테이트클래시안점,서울 영등포구 신길로28길 9 1층,영등포구,37.504013,126.9117915
신길역점,서울 영등포구 영등포로 353 엔씨티오피스텔,영등포구,37.5150723,126.9180962
IFC몰점,서울 영등포구 국제금융로 10 L3 송옥식당옆 지하철출구방향 계단,영등포구,37.5255723,126.9266142
국회의사당역점,서울 영등포구 의사당대로 22 이룸센터 1층,영등포구,37.5268735,126.9178559
신길성애병원점,서울 영등포구 여의대방로53길 27,영등포구,37.5118788,126.9215569
영등포아크로타워점,서울 영등포구 국회대로54길 10 상가1동 1층2호,영등포구,37.5238292,126.9074457
대림1동점,서울 영등포구 도림로 198 1층,영등포구,37.4964202,126.9028133
영등포knk점,서울 영등포구 영신로 220 knk디지털타워 1층 105호,영등포구,37.5268331,126.9041657
양평동2가점,서울 영등포구 선유서로25길 19 1층,영등포구,37.5243477,126.8837378
남부고용센터점,서울 영등포구 양산로 71 1층,영등포구,37.525031,126.8911141
라이프점,서울 영등포구 63로 40,영등포구,37.5196347,126.9391505
여의도농협재단점,서울 영등포구 국제금융로8길 2 농협재단빌딩,영등포구,37.5220183,126.93006
영등포당산엘르점,서울 영등포구 영등포로25길 3 1층,영등포구,37.5215201,126.89744
IBK고객센터점,서울 용산구 한남대로 72 한남동 WM센터1층,용산구,37.5350273,127.0070977
용산효창점,서울 용산구 효창원로66길 2 1층,용산구,37.5405651,126.962196
용산중앙점,서울 용산구 한강대로 52-1 이디야 용산중앙점,용산구,37.5254342,126.9646564
원효로점,서울 용산구 원효로 257,용산구,37.5405688,126.9691146
삼각지점,서울 용산구 한강대로 138 1층,용산구,37.5314541,126.9704578
용산원효대로점,"서울 용산구 원효로19길 81 지하1층, 지상1층",용산구,37.5337397,126.956232
동부이촌동점,서울 용산구 이촌로77길 19 1층,용산구,37.5205532,126.9746667
숙대입구역점,서울 용산구 한강대로 289,용산구,37.5440658,126.9719658
용산청파점,서울 용산구 청파로71길 10 1층,용산구,37.549469,126.9694083
순천향병원점,서울 용산구 대사관로 72,용산구,37.5331077,127.0059631
동자동점,서울 용산구 후암로 93,용산구,37.5533586,126.9751409
용문점,서울 용산구 원효로41길 73 1층,용산구,37.535858,126.9611436
용산원효점,서울 용산구 원효로 70,용산구,37.5324928,126.9516389
역촌진흥로점,서울 은평구 진흥로1길 3 1층,은평구,37.6007744,126.9186492
연신내역점,서울 은평구 통일로 855-9,은평구,37.6189072,126.9199088
백련산아이파크점,서울 은평구 응암로 264 1층,은평구,37.5953086,126.9188925
새절역점,서울 은평구 가좌로 272 1층,은평구,37.5931882,126.9136243
구파발역점,"서울 은평구 진관2로 29-21 115호, 116호",은평구,37.6357288,126.9193479
역촌역점,서울 은평구 진흥로 95 1층,은평구,37.6054497,126.9221418
갈현점,서울 은평구 갈현로 268,은평구,37.620632,126.9166588
연신내통일로점,서울 은평구 통일로 876,은평구,37.6212205,126.9202993
응암역점,서울 은평구 연서로 9 1층 106호,은평구,37.6001182,126.9156678
응암오거리점,서울 은평구 응암로 211,은평구,37.5909095,126.9171467
구산역점,서울 은평구 연서로 148,은평구,37.6120061,126.9176386
본서부병원점,서울 은평구 응암로 337 1층,은평구,37.601316,126.922145
불광중앙점,서울 은평구 불광로 59,은평구,37.6123382,126.9317584
증산동점,서울 은평구 증산서길 78,은평구,37.5833715,126.9065661
은평구청점,서울 은평구 은평로 197,은평구,37.6016473,126.9295303
역촌점,서울 은평구 갈현로 82,은평구,37.6052717,126.9106903
은평신사점,서울 은평구 갈현로1길 21 1층,은평구,37.5992811,126.9078797
서광교회점,서울 은평구 통일로 951 1층,은평구,37.6277498,126.9191962
불광점,서울 은평구 통일로 790 1층,은평구,37.6152424,126.9259798
녹번동점,서울 은평구 진흥로 156 신명빌딩,은평구,37.6087457,126.9269983
종로3가점,서울 종로구 종로 126,종로구,37.5701019,126.9915483
광화문점,"서울 종로구 세종대로23길 15 1층, 2층",종로구,37.5715135,126.9756633
종로5가점,서울 종로구 대학로 33 포레스트힐시티 1층 103호,종로구,37.5740764,127.0018501
대학로점,서울 종로구 대학로10길 17 동숭동복합건물 1층 이디야커피,종로구,37.5820457,127.0031897
종로타워점,서울 종로구 종로 51,종로구,37.5707534,126.9836385
경복궁역점,서울 종로구 자하문로 7 1층,종로구,37.5767121,126.9722115
동대문역점,서울 종로구 율곡로 286 2층,종로구,37.5718531,127.0080709
낙원동점,서울 종로구 삼일대로 436-1,종로구,37.5735995,126.9880357
종로이화동점,서울 종로구 낙산성곽서1길 10,종로구,37.5774947,127.008205
북촌마을점,서울 종로구 북촌로5길 39 이디야커피,종로구,37.5793518,126.9827234
종로삼일대로점,서울 종로구 삼일대로 390-1,종로구,37.5694472,126.9879828
창덕궁점,서울 종로구 돈화문로 41-1,종로구,37.5722868,126.9914371
경희궁점,서울 종로구 경희궁1길 16,종로구,37.571716,126.9706972
숭인점,서울 종로구 숭인동길 6,종로구,37.5752791,127.0216199
혜화동로터리점,서울 종로구 혜화로 3-1,종로구,37.5860563,127.0005628
탑골공원점,서울 종로구 수표로 109-1,종로구,37.5710262,126.9892106
독립문역점,서울 종로구 통일로 266,종로구,37.5758652,126.9567818
신설점,서울 종로구 난계로29길 30 1층,종로구,37.5742487,127.0214854
종로교차로점,서울 종로구 동호로 406-1,종로구,37.5706106,127.0022704
상명대점,서울 종로구 홍지문2길 6,종로구,37.6012403,126.956331
안국역사점,서울 종로구 율곡로 62 안국역 지하1층,종로구,37.5767204,126.985823
삼일빌딩점,서울 종로구 삼일대로15길 13,종로구,37.568784,126.9867476
배화여대점,서울 종로구 필운대로1길 35,종로구,37.5778059,126.9675369
종로4가점,서울 종로구 김상옥로 1,종로구,37.573511,126.9979024
서울시청점,서울 중구 세종대로20길 23 원창빌딩 1층 101-a호,중구,37.5671513,126.9787673
IBK본점,서울 중구 을지로 79,중구,37.566496,126.9865832
동대문점,서울 중구 을지로43길 38,중구,37.5677105,127.0077855
명동중앙점,서울 중구 명동7길 21 121호,중구,37.5647371,126.9838787
을지로3가점,서울 중구 수표로 45 중구 저동2가 비즈센터,중구,37.5653389,126.9895589
한국은행점,서울 중구 남대문로 29-2,중구,37.5614482,126.9789627
다동점,서울 중구 다동길 46 다동빌딩,중구,37.5678421,126.9817151
오장동점,서울 중구 마른내로 109-1 1층,중구,37.5646251,127.0001423
신당점,서울 중구 다산로35길 11 이디야커피,중구,37.5635336,127.0148576
명동역점,서울 중구 퇴계로 103 1층 이디야커피 명동역점,중구,37.5608792,126.9832305
을지로중앙점,"서울 중구 마른내로 49 지상1,2층",중구,37.5644764,126.9934865
명동거리점,서울 중구 명동8가길 7 1층,중구,37.5617661,126.9854139
신당중앙점,서울 중구 퇴계로 455,중구,37.5655864,127.0223234
퇴계로2길점,서울 중구 퇴계로2길 1,중구,37.5575768,126.9774328
동국대후문점,서울 중구 창경궁로 2,중구,37.5625645,126.9986973
회현SK리더스점,서울 중구 퇴계로 72 리더스뷰남산,중구,37.5592014,126.9808787
정동점,서울 중구 정동길 2-1 갑도빌딩,중구,37.5679853,126.9693662
서소문점,서울 중구 서소문로11길 8,중구,37.5632776,126.9731106
태평로점,서울 중구 세종대로11길 26,중구,37.5623176,126.9746004
충무필동점,서울 중구 퇴계로 218-5,중구,37.5613814,126.9962942
광희동점,서울 중구 마른내로 165-1,중구,37.5646263,127.0065093
충무아트홀점,서울 중구 퇴계로 381-1,중구,37.5652839,127.0140155
동대문 팀204점,서울 중구 마장로 30 3층,중구,37.5677232,127.013206
동평화점,"서울 중구 청계천로 318 동평화의류상가 제109,110호",중구,37.5693352,127.0137717
중림브라운스톤점,서울 중구 청파로 464 브라운스톤1층 109-1호,중구,37.5609183,126.9683304
상봉홈플러스점,서울 중랑구 망우로 353 상봉 프레미어스 엠코,중랑구,37.5982973,127.0903644
서울의료원점,서울 중랑구 신내로 156 1층,중랑구,37.6132762,127.0978309
상봉역점,서울 중랑구 망우로 277,중랑구,37.5960518,127.0834324
면목역점,서울 중랑구 면목로 429 1층 이디야커피 면목역점,중랑구,37.5901934,127.0868261
사가정아이파크점,서울 중랑구 동일로92길 57 1층,중랑구,37.5834836,127.0831967
화랑대역점,서울 중랑구 신내로25가길 2 104호,중랑구,37.6194805,127.0842266
중랑역점,서울 중랑구 망우로 198,중랑구,37.5933359,127.0748804
먹골역점,서울 중랑구 동일로157길 13,중랑구,37.6097458,127.076915
중화동점,서울 중랑구 동일로129길 1 1층,중랑구,37.5993838,127.0795427
봉화산역점,서울 중랑구 신내로 211 금강리빙스텔,중랑구,37.6163597,127.0927002
동원사거리점,서울 중랑구 겸재로 240 행복오피스텔 1층 102호,중랑구,37.5896269,127.0941827
금란망우점,서울 중랑구 망우로 460 1층 이디야커피 금란망우점,중랑구,37.6001145,127.1031463
중랑묵동점,서울 중랑구 공릉로 42 W7빌딩 1층,중랑구,37.6144121,127.0783085
망우중앙점,서울 중랑구 용마산로115길 109 한일써너스빌리젠시2단지,중랑구,37.597589,127.0942522
서울상봉1동점,서울 중랑구 상봉중앙로 36 1층,중랑구,37.600333,127.0877908
상봉중앙점,서울 중랑구 망우로 316 이지팰리스,중랑구,37.5965182,127.0875551
사가정역점,서울 중랑구 면목로 325,중랑구,37.581142,127.0881903
망우코레일점,서울 중랑구 망우로55길 11-10,중랑구,37.5992876,127.0927566
서일중앙점,서울 중랑구 용마산로 394 1층 이디야커피 서일중앙점,중랑구,37.586659,127.0955669
면목늘찬병원점,서울 중랑구 동일로 643 1층,중랑구,37.587994,127.0796571
면목경남아너스빌점,서울 중랑구 면목로27길 92,중랑구,37.5742612,127.0805366
중랑교차로점,서울 중랑구 동일로 683 1층 이디야커피,중랑구,37.5914586,127.0798769
신내동점,서울 중랑구 봉화산로 215,중랑구,37.6076585,127.0965492
양원역점,서울 중랑구 양원역로14가길 24,중랑구,37.6074213,127.1067723
서울중화초등학교점,서울 중랑구 신내로7가길 7 제이리옴,중랑구,37.6023484,127.095476
