cafe_name,address,gu_name,latitude,longitude
역삼아레나빌딩점,서울특별시 강남구 언주로 425 (역삼동),강남구,37.5011154,127.0430599
논현역사거리점,서울특별시 강남구 강남대로 538 (논현동),강남구,37.5102238,127.0222905
신사역성일빌딩점,서울특별시 강남구 강남대로 584 (논현동),강남구,37.5139392,127.0206351
국기원사거리점,서울특별시 강남구 테헤란로 125 (역삼동),강남구,37.4996098,127.0316927
대치재경빌딩점,서울특별시 강남구 남부순환로 2947 (대치동),강남구,37.4945786,127.062676
봉은사역점,서울특별시 강남구 봉은사로 619 (삼성동),강남구,37.5149947,127.0631379
압구정윤성빌딩점,서울특별시 강남구 논현로 834 (신사동),강남구,37.5228353,127.0285887
코엑스별마당점,서울특별시 강남구 영동대로 513 (삼성동),강남구,37.5116621,127.0594274
삼성역섬유센터R점,서울특별시 강남구 테헤란로 518 (대치동),강남구,37.5076008,127.0605968
압구정R점,서울특별시 강남구 언주로 861 (신사동),강남구,37.5274157,127.0331634
수서역R점,서울특별시 강남구 광평로 281 (수서동),강남구,37.4881219,127.103087
양재강남빌딩R점,서울특별시 강남구 남부순환로 2621 (도곡동),강남구,37.4852517,127.0366398
선릉동신빌딩R점,서울특별시 강남구 테헤란로 409 (삼성동),강남구,37.5053676,127.0504072
봉은사로선정릉점,서울특별시 강남구 봉은사로 446 (삼성동),강남구,37.5113651,127.0485264
강남오거리점,서울특별시 강남구 봉은사로2길 39 (역삼동),강남구,37.5020758,127.0266873
스타필드코엑스몰R점,서울특별시 강남구 영동대로 513 (삼성동) 코엑스 A106호,강남구,37.5116621,127.0594274
강남구청정문점,서울특별시 강남구 학동로 419 (청담동),강남구,37.5183063,127.0459958
도곡공원점,서울특별시 강남구 도곡로 205 (역삼동),강남구,37.4929277,127.0413818
강남R점,서울특별시 강남구 강남대로 390 (역삼동),강남구,37.497901,127.028709
대치은마사거리점,서울특별시 강남구 도곡로 457 (대치동),강남구,37.4990048,127.0602016
청담영동대로점,서울특별시 강남구 영동대로 720 (청담동),강남구,37.5221933,127.0564611
압구정점,서울특별시 강남구 압구정로30길 17 (신사동),강남구,37.5263219,127.0295456
신사가로수점,서울특별시 강남구 가로수길 59,강남구,37.5218965,127.0225386
청담스타R점,서울특별시 강남구 도산대로57길 24 (청담동),강남구,37.5252561,127.0417755
강남우성점,서울특별시 강남구 강남대로 328 (역삼동),강남구,37.4924281,127.0309385
학동사거리점,서울특별시 강남구 도산대로 328 (논현동),강남구,37.5223957,127.0379816
대치사거리점,서울특별시 강남구 삼성로 402 (대치동),강남구,37.5033724,127.0588557
포스코사거리점,서울특별시 강남구 테헤란로 505 (삼성동) 화진빌딩,강남구,37.5075748,127.0574627
을지병원사거리점,"서울특별시 강남구 논현로 752 (논현동,구산빌딩)",강남구,37.519162,127.0286662
신사역점,서울특별시 강남구 도산대로 108 (논현동) 렉스타워,강남구,37.5161887,127.0206793
도곡역점,서울특별시 강남구 남부순환로 2909 (대치동),강남구,37.492191,127.0574186
서울세관사거리점,서울특별시 강남구 언주로 650 (논현동) 한국건설기술인협회,강남구,37.5149422,127.0357897
청담사거리점,서울특별시 강남구 도산대로 458 (청담동) 리츠타워,강남구,37.5237774,127.0468799
한티역점,"서울특별시 강남구 도곡로 408, 디마크빌딩 101호 (대치동)",강남구,37.4966282,127.05525
역삼초교사거리점,서울특별시 강남구 역삼로 123 (역삼동),강남구,37.494184,127.0330224
코엑스몰점,서울특별시 강남구 영동대로 513 (삼성동) O103호,강남구,37.5116621,127.0594274
가로수길점,"서울특별시 강남구 논현로175길 94, 1~2층 (신사동)",강남구,37.5231839,127.0216592
역삼대로점,"서울특별시 강남구 테헤란로 211, 한국고등교육재단빌딩 1층 (역삼동)",강남구,37.5018938,127.0392851
역삼포스코점,"서울특별시 강남구 테헤란로 134, P&S TOWER (역삼동)",강남구,37.4994283,127.0337289
강남대로점,"서울특별시 강남구 강남대로 456, 한석타워 2층 1-2호 (역삼동)",강남구,37.5031776,127.0255916
청담점,"서울특별시 강남구 도산대로 532, 인희빌딩 1층 (청담동)",강남구,37.5243767,127.0515992
삼성도심공항점,서울특별시 강남구 테헤란로87길 33 (삼성동),강남구,37.5098304,127.0579482
삼성교점,"서울특별시 강남구 영동대로86길 12, 동남유화빌딩 1층",강남구,37.5078308,127.0652102
학동역점,서울특별시 강남구 논현로 704 (논현동),강남구,37.5146045,127.0307899
대치점,서울특별시 강남구 도곡로 511 (대치동),강남구,37.4996454,127.0622564
신세계푸드마켓도곡점,"서울특별시 강남구 언주로30길 57, 타워팰리스Ⅱ F 지하1층 (도곡동)",강남구,37.4897178,127.0546504
삼성점,"서울특별시 강남구 테헤란로 443, 애플트리타워 1층 (삼성동)",강남구,37.5069533,127.0556179
선릉세화빌딩점,서울특별시 강남구 테헤란로64길 18 (대치동) 1층,강남구,37.503778,127.05122
압구정역점,"서울특별시 강남구 압구정로 170, 관영빌딩 1층 지하1층 (신사동)",강남구,37.5267612,127.0281253
압구정로점,서울특별시 강남구 압구정로42길 32 (신사동),강남구,37.5267982,127.0347357
구역삼사거리점,서울특별시 강남구 논현로 401 (역삼동),강남구,37.4959353,127.0389176
큰길타워점,"서울특별시 강남구 테헤란로 223, 큰길타워빌딩 (역삼동)",강남구,37.5023961,127.0406935
강남구청역점,"서울특별시 강남구 선릉로 669, 웰빙센터 1층 (논현동)",강남구,37.5166379,127.041237
대치역점,서울특별시 강남구 남부순환로 2936 (대치동) 107호,강남구,37.493385,127.0618767
포이점,서울특별시 강남구 논현로 88 (개포동),강남구,37.4778221,127.0451614
아크플레이스점,서울특별시 강남구 테헤란로 142 (역삼동),강남구,37.4997343,127.0349637
학여울역점,서울특별시 강남구 영동대로 215 (대치동),강남구,37.4980052,127.0685376
선정릉역점,서울특별시 강남구 봉은사로 407 (삼성동) 에프오빌딩,강남구,37.5107811,127.0445725
삼성현대힐점,서울특별시 강남구 삼성로 605 (삼성동),강남구,37.5134928,127.0527357
GS타워점,서울특별시 강남구 논현로 508 (역삼동),강남구,37.5019949,127.0373364
압구정미소점,서울특별시 강남구 논현로 841 (신사동),강남구,37.5240297,127.027762
선릉역점,"서울특별시 강남구 테헤란로 334, LG화재 빌딩 (역삼동)",강남구,37.5039513,127.0485523
코엑스사거리점,서울특별시 강남구 영동대로 616 (삼성동),강남구,37.5152567,127.0602256
역삼럭키점,서울특별시 강남구 도곡로 183 (역삼동),강남구,37.4922524,127.0394115
신압구정점,서울특별시 강남구 언주로174길 29 (신사동),강남구,37.5281233,127.0364849
아크로힐스논현점,"서울특별시 강남구 봉은사로 304, 금강빌딩 1-2층 (역삼동)",강남구,37.5089816,127.0404241
강남비젼타워점,"서울특별시 강남구 테헤란로2길 27, 1층 101호 (역삼동)",강남구,37.4965038,127.0297218
압구정로데오역점,"서울특별시 강남구 선릉로 836, 삼원빌딩 1,2층 (청담동)",강남구,37.5265481,127.0405477
르네상스사거리점,서울특별시 강남구 테헤란로 306 (역삼동),강남구,37.502591,127.0441312
포스코점,"서울특별시 강남구 삼성로86길 7, 1층 (대치동)",강남구,37.5057792,127.0579627
선릉로점,"서울특별시 강남구 선릉로93길 22, 대흥빌딩 1층 (역삼동)",강남구,37.504995,127.0467695
논현힐탑점,서울특별시 강남구 논현로 648 (논현동),강남구,37.5115889,127.0322915
도산가로수길점,"서울특별시 강남구 도산대로 134, 2층 (논현동)",강남구,37.5173572,127.0234091
매봉역점,서울특별시 강남구 남부순환로 2736 (도곡동),강남구,37.4859078,127.0452641
대치한티점,서울특별시 강남구 선릉로 324 (대치동),강남구,37.4985271,127.0520964
개포동점,서울특별시 강남구 선릉로 34 (개포동),강남구,37.4828398,127.060745
수서역사거리점,서울특별시 강남구 광평로 280 (수서동),강남구,37.4873192,127.103108
코엑스아셈타워점,서울특별시 강남구 영동대로 517 (삼성동),강남구,37.5130502,127.0598322
센터필드R점,서울특별시 강남구 테헤란로 231 (역삼동),강남구,37.5028813,127.0413566
도산사거리점,서울특별시 강남구 언주로 727 (논현동),강남구,37.5196367,127.0341007
강남세곡점,서울특별시 강남구 헌릉로569길 18 (세곡동),강남구,37.4672743,127.0999297
대치삼성점,서울특별시 강남구 영동대로 237 (대치동),강남구,37.5004652,127.0670641
언주역점,서울특별시 강남구 봉은사로 222 (역삼동),강남구,37.507768,127.0365316
강남역신분당역사점,서울특별시 강남구 강남대로 396 (역삼동),강남구,37.4981647,127.0283079
삼성역점,서울특별시 강남구 테헤란로 620 (대치동),강남구,37.5092066,127.0656011
테헤란로아남타워점,서울특별시 강남구 테헤란로 311 (역삼동),강남구,37.503772,127.0448419
강남논현점,서울특별시 강남구 강남대로 512 (논현동),강남구,37.5078911,127.023341
삼성동점,서울특별시 강남구 영동대로96길 12 (삼성동),강남구,37.5107447,127.0636033
압구정역사3번출구점,서울특별시 강남구 논현로 854 (신사동),강남구,37.5253216,127.0288651
청담역점,서울특별시 강남구 삼성로 709 (청담동),강남구,37.5194306,127.0495363
압구정현대아파트점,서울특별시 강남구 논현로175길 38 (신사동),강남구,37.525188,127.0255686
강남청담빌딩점,서울특별시 강남구 선릉로 704 (청담동),강남구,37.5178094,127.0414074
역삼이마트점,서울특별시 강남구 역삼로 310 (역삼동),강남구,37.4992883,127.0484325
케이스퀘어강남점,서울특별시 강남구 강남대로94길 10 (역삼동),강남구,37.4991963,127.0282272
강남세곡DT점,서울특별시 강남구 헌릉로 727 (세곡동),강남구,37.4669908,127.1183361
미아뉴타운점,서울특별시 강북구 삼양로 161 (미아동),강북구,37.6183958,127.0211389
강북구청사거리점,서울특별시 강북구 도봉로 365 (수유동),강북구,37.6400289,127.0273886
미아사거리역점,서울특별시 강북구 도봉로 32 (미아동),강북구,37.6118504,127.0307281
수유역점,서울특별시 강북구 도봉로 342 (번동),강북구,37.6380351,127.0261456
미아역점,서울특별시 강북구 도봉로 196 (미아동),강북구,37.6261604,127.0265993
수유역5번출구점,"서울특별시 강북구 도봉로 315 (수유동, 에피소드 수유 838)",강북구,37.6369286,127.0233101
파라스파라서울점,서울특별시 강북구 삼양로 689 (우이동) 파라스파라서울 지하1층,강북구,37.6649461,127.0076861
발산역사거리점,서울특별시 강서구 공항대로 248 (마곡동),강서구,37.5584039,126.8348939
마곡역점,서울특별시 강서구 공항대로 168 (마곡동),강서구,37.5593086,126.8261754
우장산역점,서울특별시 강서구 강서로 267 (내발산동),강서구,37.5496059,126.835939
마곡사이언스타워R점,서울특별시 강서구 마곡동로 62 (마곡동),강서구,37.5605538,126.8338901
방화DT점,서울특별시 강서구 방화대로 375 (방화동),강서구,37.5744365,126.8163804
마곡나루역점,서울특별시 강서구 마곡중앙로 161-17 (마곡동),강서구,37.5680581,126.8259608
마곡GMG점,"서울특별시 강서구 마곡중앙6로 16 (마곡동) 117,118,119,120호",강서구,37.5603973,126.8290307
가양역점,서울특별시 강서구 양천로 476 (등촌동),강서구,37.5616037,126.8532854
화곡DT점,서울특별시 강서구 등촌로 57 (화곡동),강서구,37.5350126,126.863143
양천향교역점,서울특별시 강서구 강서로 463 (마곡동),강서구,37.5669502,126.8404559
화곡동점,서울특별시 강서구 화곡로 142(화곡동),강서구,37.5405706,126.8376195
등촌점,서울특별시 강서구 공항대로 329 (등촌동),강서구,37.5582758,126.8443543
염창역점,서울특별시 강서구 공항대로 627 (염창동),강서구,37.5472856,126.8745461
발산역점,서울특별시 강서구 강서로 388 (등촌동) 그랜드마트,강서구,37.5602435,126.8393452
까치산역점,서울특별시 강서구 강서로13길 3 (화곡동),강서구,37.5322971,126.8460657
염창대로점,"서울특별시 강서구 양천로 744 (염창동), 101호",강서구,37.5485604,126.8782558
발산역5번출구점,"서울특별시 강서구 강서로52길 43 (내발산동, DH647), 1층 일부",강서구,37.5579965,126.8405551
화곡역8번출구점,"서울특별시 강서구 강서로 179 (화곡동), 1층 일부",강서구,37.5423627,126.8393222
강서우장산점,"서울특별시 강서구 강서로 231 (화곡동, 우장산역 해링턴 타워), 116/117/118/119/120호",강서구,37.5462462,126.8361212
등촌대로점,"서울특별시 강서구 공항대로 543 (염창동, 센터스퀘어)",강서구,37.5507252,126.8663403
가양역사거리점,"서울특별시 강서구 화곡로 416 (등촌동) 가양더스카이벨리5차 지식산업센터 101, 102, 114,~117호",강서구,37.560024,126.8554197
내발산점,"서울특별시 강서구 강서로 323 (내발산동), 101/102호",강서구,37.5546873,126.8365498
마곡웰튼점,"서울특별시 강서구 마곡중앙5로 22 (마곡동), 104/105/106호",강서구,37.5672498,126.825303
김포공항DT점,서울특별시 강서구 개화동로 517 (방화동),강서구,37.5662795,126.8060492
강서NC점,서울특별시 강서구 강서로56길 17 (등촌동),강서구,37.5599572,126.8405062
김포공항국제선점,서울특별시 강서구 하늘길 38 (방화동),강서구,37.5713698,126.8029604
마곡나루공원점,서울특별시 강서구 마곡중앙5로 47 (마곡동),강서구,37.5669048,126.8222726
송정역점,"서울특별시 강서구 공항대로 38 (공항동), 1층 일부",강서구,37.5609742,126.8115884
강서구청사거리점,서울특별시 강서구 화곡로 350 (화곡동),강서구,37.5548095,126.8522098
낙성대역점,서울특별시 관악구 남부순환로 1908 (봉천동),관악구,37.4777111,126.9612248
관악서울대입구R점,서울특별시 관악구 관악로 158 (봉천동),관악구,37.4793256,126.9528173
신림DT점,서울특별시 관악구 남부순환로 1419 (신림동),관악구,37.4809819,126.9084306
서울대역점,서울특별시 관악구 남부순환로 1817 (봉천동),관악구,37.4816412,126.9521444
낙성대DT점,서울특별시 관악구 남부순환로 1948 (봉천동),관악구,37.4761875,126.9651316
사당점,서울특별시 관악구 남부순환로 2082-25,관악구,37.4760614,126.9810098
보라매대교점,서울특별시 관악구 보라매로3길 23 (봉천동) 1층,관악구,37.4910805,126.9255647
신림점,서울특별시 관악구 신림로 355-1 (신림동),관악구,37.4861063,126.9291704
신림타임스트림점,서울특별시 관악구 신림로 330 타임스트림 1층,관악구,37.4838598,126.9302425
서울대입구역점,서울특별시 관악구 남부순환로 1812 (봉천동),관악구,37.4811325,126.9513471
서울대입구역8번출구점,서울특별시 관악구 남부순환로 1831 (봉천동),관악구,37.4812036,126.9536861
봉천역점,서울특별시 관악구 남부순환로 1730 (봉천동),관악구,37.4820724,126.9422621
봉천현대시장점,"서울특별시 관악구 은천로 118 (봉천동), 1층 101~104호",관악구,37.4865494,126.9484411
건국대점,서울특별시 광진구 능동로 117 (화양동),광진구,37.5415972,127.0711477
어린이대공원역점,서울특별시 광진구 능동로 243 (군자동),광진구,37.5519457,127.0763505
아차산역점,서울특별시 광진구 천호대로 676 (구의동),광진구,37.5505989,127.0899332
올림픽대교북단점,서울특별시 광진구 광나루로 608 (구의동),광진구,37.5411606,127.0952817
구의DT점,서울특별시 광진구 광나루로 519 (구의동),광진구,37.5453066,127.0872132
자양사거리점,서울특별시 광진구 아차산로 355,광진구,37.5373363,127.0825914
군자역점,서울특별시 광진구 천호대로 548 (군자동) 중앙빌딩,광진구,37.5568276,127.0790015
광나루점,"서울특별시 광진구 아차산로 607, 1,2층 (광장동)",광진구,37.547383,127.1060634
건대스타시티점,서울특별시 광진구 아차산로 262 (자양동),광진구,37.5375105,127.0725939
건대입구점,서울특별시 광진구 능동로 107 (화양동),광진구,37.5407034,127.070742
구의역점,서울특별시 광진구 아차산로 373 (구의동),광진구,37.5370045,127.0840486
광장점,서울특별시 광진구 아차산로 537-17 (광장동),광진구,37.54351,127.0996819
건국클래식점,서울특별시 광진구 능동로 90 (자양동) 더 클래식500,광진구,37.5386303,127.0709719
건대후문점,서울특별시 광진구 능동로 172 (화양동),광진구,37.5459556,127.073974
중곡역점,"서울특별시 광진구 능동로 400 (중곡동) 1층 108,109,110,111,112,118 6개호실",광진구,37.5650581,127.0844568
자양이마트점,서울특별시 광진구 아차산로 272 (자양동) 지하1층,광진구,37.5385583,127.0729962
자양역점,"서울특별시 광진구 능동로 18 (자양동, 이튼타워리버3차)",광진구,37.5327596,127.0681986
화양삼거리점,서울특별시 광진구 광나루로 374 (화양동),광진구,37.5475749,127.0712878
군자사거리점,서울특별시 광진구 천호대로 549 (중곡동) 1층,광진구,37.5576985,127.0792261
금천구청역점,"서울특별시 금천구 시흥대로73길 67 (시흥동), 엠메디컬타워 1층",금천구,37.4559426,126.8957474
가산에스케이점,"서울특별시 금천구 가산디지털1로 171 (가산동), SK V1센터 1층",금천구,37.4807624,126.8806788
독산사거리점,서울특별시 금천구 시흥대로 426 (독산동),금천구,37.4715773,126.898787
금천시흥점,서울특별시 금천구 시흥대로 164 (시흥동),금천구,37.4488933,126.9032283
가산디지털단지역점,"서울특별시 금천구 벚꽃로 298 (가산동), 대륭포스트타워 6차 1층",금천구,37.4814002,126.8837813
금천독산점,서울특별시 금천구 두산로 70 (독산동),금천구,37.4689627,126.8956207
가산디지털점,"서울특별시 금천구 가산디지털1로 168 (가산동), 우림라이온스밸리 B동 1층",금천구,37.4799665,126.8826362
마리오아울렛점,서울특별시 금천구 벚꽃로 266 마리오아울렛3관,금천구,37.4784856,126.8850273
가산브이타워점,"서울특별시 금천구 가산디지털1로 128 (가산동), V-TOWER 1층",금천구,37.4772358,126.8837009
독산역점,"서울특별시 금천구 가산디지털1로 16 (가산동), 107-2, 1층",금천구,37.4676102,126.8880861
가산퍼블릭점,"서울특별시 금천구 디지털로 178 (가산동), B동 F Park 1층",금천구,37.4766286,126.8871293
가산현대아울렛점,"서울특별시 금천구 디지털로10길 9 (가산동), 1층 일부",금천구,37.4775997,126.8891282
가산케이에스점,"서울특별시 금천구 벚꽃로36길 30 (가산동), 가산KS타워 1층",금천구,37.4806948,126.8850987
가산어반워크점,서울특별시 금천구 가산디지털2로 135 (가산동),금천구,37.4799935,126.878116
월계역점,"서울특별시 노원구 초안산로2라길26 월계동(104,105,106호)",노원구,37.6305211,127.0576337
월계트레이더스점,서울특별시 노원구 마들로3길 15 (월계동),노원구,37.6265093,127.0619797
상계초교사거리점,서울특별시 노원구 노원로 449 (상계동),노원구,37.6566695,127.0664416
공릉DT점,서울특별시 노원구 동일로 1015 (공릉동),노원구,37.6207527,127.0742209
노원마들역점,"서울특별시 노원구 노원로 569 (상계동, 임광아파트)",노원구,37.6608056,127.0570372
공릉역점,서울특별시 노원구 동일로 1081 (공릉동),노원구,37.6263815,127.072288
은행사거리점,"서울특별시 노원구 중계로 217, 중흥빌딩 103,203호 (중계동)",노원구,37.6505113,127.0760057
노원KT점,"서울특별시 노원구 노해로 502, (주)KT 노원사옥 (상계동)",노원구,37.654566,127.0636241
광운대점,서울특별시 노원구 석계로 104 (월계동),노원구,37.6231789,127.0607341
중계역점,"서울특별시 노원구 동일로 1339, 대한빌딩 (상계동)",노원구,37.6481635,127.0621997
노원역점,서울특별시 노원구 동일로 1413 (상계동) 1층,노원구,37.6547775,127.0600404
월계이마트점,서울특별시 노원구 마들로3길 15 (월계동),노원구,37.6265093,127.0619797
태릉입구역DT점,서울특별시 노원구 화랑로 469 (공릉동),노원구,37.6192542,127.07937
노원상계점,서울특별시 노원구 동일로215길 2 (상계동),노원구,37.6515441,127.0609342
노원구청점,서울특별시 노원구 노해로 447 (상계동),노원구,37.6539746,127.0577643
창동이마트점,서울특별시 도봉구 노해로65길 4 (창동),도봉구,37.6516362,127.0466993
쌍문역점,서울특별시 도봉구 도봉로 480 (창동),도봉구,37.6483498,127.0349027
도봉구청점,서울특별시 도봉구 마들로 665 (도봉동),도봉구,37.6695329,127.0460389
쌍문도봉로점,서울특별시 도봉구 도봉로 444 (창동),도봉구,37.6453822,127.0332535
도봉로DT점,서울특별시 도봉구 도봉로 635 (쌍문동),도봉구,37.6611579,127.0416876
방학역점,"서울특별시 도봉구 도봉로 684 (방학동)101,102,113,114,115호",도봉구,37.6653467,127.0435897
창동역점,서울특별시 도봉구 마들로13길 61 (창동),도봉구,37.6544068,127.0497957
노량진동점,"서울특별시 동작구 노량진로 190 (노량진동, 고려교육타워-어바니엘한강) 101호~105호",동작구,37.5129588,126.9468626
남성역점,서울특별시 동작구 사당로 219 (사당동),동작구,37.4841688,126.9726736
상도역점,서울특별시 동작구 상도로37길 1 (상도1동),동작구,37.503236,126.9484501
보라매공원R점,"서울특별시 동작구 보라매로5길 35 (신대방동, 파크스퀘어,보라매현대APT)",동작구,37.492235,126.923388
이수자이점,서울특별시 동작구 사당로 300 (사당동 이수자이),동작구,37.4843925,126.9805813
노량진역점,서울특별시 동작구 노량진로 134 (노량진동),동작구,37.513369,126.9409005
신대방삼거리역점,서울특별시 동작구 상도로 102 (상도동),동작구,37.4999427,126.9317763
중앙대점,서울특별시 동작구 흑석로 75-1 (흑석동),동작구,37.5069728,126.9581303
숭실대입구역점,서울특별시 동작구 상도로 354 (상도동),동작구,37.4968808,126.9527459
숭실대점,서울특별시 동작구 사당로 4 (상도동),동작구,37.4954152,126.9548687
사당역점,"서울특별시 동작구 동작대로 21, 양지빌딩 1-3층 (사당동)",동작구,37.4784873,126.9813713
서강대프라자점,서울특별시 마포구 백범로 35 (신수동),마포구,37.5517132,126.9410634
상암YTN점,서울특별시 마포구 상암산로 76 (상암동),마포구,37.5791261,126.8923741
마포용강동점,서울특별시 마포구 토정로 295 (용강동),마포구,37.541206,126.9422329
홍대입구역사거리R점,서울특별시 마포구 양화로 125 (서교동),마포구,37.554734,126.9203014
마포경찰서후문점,서울특별시 마포구 마포대로 173-14 (아현동),마포구,37.5510075,126.9536224
공덕점,서울특별시 마포구 마포대로 130 (공덕동),마포구,37.545957,126.9529879
합정폴리스R점,"서울특별시 마포구 양화로 45 (서교동, 메세나폴리스)",마포구,37.5510463,126.913739
홍대공항철도역점,서울특별시 마포구 양화로 178 (동교동),마포구,37.5575046,126.9252132
마포염리점,서울특별시 마포구 독막로 311 (염리동),마포구,37.5439955,126.9474817
서강광흥창역점,서울특별시 마포구 서강로 69 (창전동),마포구,37.549428,126.9316793
합정점,"서울특별시 마포구 월드컵로1길 14 (합정동) 마포한강푸르지오 110, 111, 112-2",마포구,37.5499472,126.9121599
서강대흥역점,서울특별시 마포구 백범로 89-5 (대흥동),마포구,37.5482944,126.9417179
서교동사거리점,서울특별시 마포구 양화로 105 (서교동),마포구,37.5534171,126.9185836
상암사보이시티점,서울특별시 마포구 월드컵북로54길 17 (상암동),마포구,37.5813386,126.8885633
신촌오거리점,서울특별시 마포구 신촌로16길 10 (노고산동),마포구,37.5551778,126.9346957
상암디지털큐브점,서울특별시 마포구 상암산로 34,마포구,37.5762163,126.8892881
상수역점,서울특별시 마포구 독막로 88 (상수동),마포구,37.5475082,126.9232166
공덕오거리점,서울특별시 마포구 마포대로 86 (도화동) 창강빌딩,마포구,37.5426447,126.9505813
서강대점,서울특별시 마포구 백범로 23 (신수동),마포구,37.5528407,126.9379177
상암MBC점,서울특별시 마포구 성암로 267 (상암동),마포구,37.5811234,126.890989
홍대역점,"서울특별시 마포구 양화로 165, 상진빌딩 1층 (동교동)",마포구,37.5572103,126.9236203
동교점,"서울특별시 마포구 월드컵북로 22, 영준빌딩 1층 (동교동)",마포구,37.5569013,126.9200232
애오개역점,"서울특별시 마포구 마포대로 201, 마포트라팰리스II (아현동)",마포구,37.5521806,126.9555933
상암DMC점,"서울특별시 마포구 월드컵북로 375, DMC이안오피스텔1단지 102호,202호 (상암동)",마포구,37.5775718,126.8906892
마포일진빌딩점,"서울특별시 마포구 마포대로 45, 일진빌딩 1층 (도화동)",마포구,37.5404731,126.9463744
마포아크로점,서울특별시 마포구 마포대로 68 (도화동) 마포아크로타워,마포구,37.5413382,126.9490623
홍대삼거리점,서울특별시 마포구 와우산로 64 (상수동),마포구,37.5502077,126.9232577
망원역점,서울특별시 마포구 월드컵로 74 (서교동),마포구,37.5557789,126.9107211
마포이마트점,서울특별시 마포구 백범로 212 (신공덕동) 마포이마트,마포구,37.5424867,126.9535163
합정메세나몰점,"서울특별시 마포구 양화로 45 (서교동, 메세나폴리스)",마포구,37.5510463,126.913739
아현역대로점,서울특별시 마포구 신촌로 262 (아현동),마포구,37.557056,126.954826
디지털미디어시티역점,서울특별시 마포구 성암로 179 (상암동),마포구,37.5761771,126.8986284
홍대역8번출구점,서울특별시 마포구 양화로 166 (동교동),마포구,37.5567326,126.9241712
합정푸르지오점,"서울특별시 마포구 월드컵로3길 14 (합정동, 마포 한강 2차 푸르지오)",마포구,37.5512008,126.9119
홍대동교점,서울특별시 마포구 양화로 192 (동교동),마포구,37.5583314,126.9262485
망원한강공원점,서울특별시 마포구 마포나루길 435 (망원동),마포구,37.5539912,126.8963235
마포구청역점,서울특별시 마포구 월드컵로 200 (성산동) 1층 일부,마포구,37.5649573,126.9025601
가재울뉴타운점,"서울특별시 서대문구 가재울미래로 2 (남가좌동, DMC파크뷰자이2단지별동상가1층)",서대문구,37.5728378,126.9176131
남가좌사거리점,"서울특별시 서대문구 거북골로 84 (남가좌동, DMC에코자이104동)",서대문구,37.5774713,126.9191564
신촌역점,서울특별시 서대문구 신촌로 73 (창천동),서대문구,37.5563093,126.9345387
아현역점,"서울특별시 서대문구 신촌로35길 10 (북아현동, e편한세상신촌 4단지)",서대문구,37.5586219,126.9558605
홍제역점,서울특별시 서대문구 통일로 451 (홍제동),서대문구,37.5886728,126.943868
연세백양로점,서울특별시 서대문구 연세로 50 (신촌동) 연세대학교,서대문구,37.5671131,126.9390292
연희DT점,서울특별시 서대문구 연희로 144 (연희동),서대문구,37.5701891,126.9338901
경기대점,서울특별시 서대문구 충정로 53 (충정로2가),서대문구,37.5637531,126.9646501
신촌점,서울특별시 서대문구 연세로 10-1 (창천동),서대문구,37.5565,126.9371419
이대점,서울특별시 서대문구 이화여대길 34 (대현동),서대문구,37.5584288,126.9459565
연세종합관점,"서울특별시 서대문구 연세로 50, 연세세브란스 종합관 (신촌동)",서대문구,37.5671131,126.9390292
이대ECC점,서울특별시 서대문구 이화여대길 52 (대현동) 이화여자대학교 B415호,서대문구,37.5617396,126.9472448
연대점,서울특별시 서대문구 연세로 35 (창천동),서대문구,37.5587289,126.9367303
충정로역점,서울특별시 서대문구 충정로 23,서대문구,37.5611475,126.9629441
연대동문점,서울특별시 서대문구 성산로 565 (대신동),서대문구,37.5664624,126.9463688
신촌명물거리점,"서울특별시 서대문구 명물길 24, 1-5층 (창천동)",서대문구,37.5578041,126.9381557
충정타워점,"서울특별시 서대문구 서소문로 21, 충정타워빌딩 1층 (충정로3가)",서대문구,37.5598996,126.964101
이대역점,서울특별시 서대문구 신촌로 183 (대현동),서대문구,37.5570841,126.9463283
신촌로점,서울특별시 서대문구 신촌로 109 (창천동),서대문구,37.5557525,126.9381006
북가좌DT점,서울특별시 서대문구 응암로 85 (북가좌동),서대문구,37.5805891,126.9115294
현대신촌점,서울특별시 서대문구 신촌로 83 (창천동),서대문구,37.5560846,126.9358309
방배로점,서울특별시 서초구 방배로 52 (방배동),서초구,37.4793513,126.9994288
강남교보타워R점,서울특별시 서초구 강남대로 465 (서초동),서초구,37.5038015,127.0242029
방배다이치빌딩점,서울특별시 서초구 방배로 114 (방배동),서초구,37.4843447,126.996105
센트럴F1점,서울특별시 서초구 신반포로 176 (반포동),서초구,37.5039351,127.002413
서초역이화빌딩점,서울특별시 서초구 반포대로21길 3 (서초동),서초구,37.4883093,127.0090455
서초구청점,서울특별시 서초구 남부순환로 2557 (서초동),서초구,37.4844454,127.0300864
서초우성사거리점,서울특별시 서초구 강남대로 343 (서초동),서초구,37.4935194,127.0292591
이수역사거리점,"서울특별시 서초구 서초대로 3-4 (방배동, 방배디오슈페리움1)",서초구,37.4860933,126.9829747
강남대로신사점,서울특별시 서초구 강남대로 595 (잠원동),서초구,37.5148598,127.0195571
서울고속터미널점,서울특별시 서초구 신반포로 194 (반포동),서초구,37.50568,127.0058468
방배점,서울특별시 서초구 방배로 211,서초구,37.4920013,126.9906595
방배카페거리점,서울특별시 서초구 방배중앙로 162 (방배동),서초구,37.493523,126.9865579
서초법원점,서울특별시 서초구 서초대로 274 (서초동),서초구,37.4928317,127.0119352
청계산입구역점,서울특별시 서초구 청계산로 203 (신원동),서초구,37.4473274,127.0563097
사당로데오점,서울특별시 서초구 방배천로 5-4(방배동),서초구,37.4772928,126.9821932
파미에파크R점,서울특별시 서초구 사평대로 205 (반포동) CENTRALCITY,서초구,37.5044921,127.0078453
양재역점,서울특별시 서초구 강남대로 202 (양재동) 모산빌딩,서초구,37.4823345,127.0368774
논현역점,서울특별시 서초구 강남대로 557 (잠원동) 1~2층,서초구,37.5115656,127.0206713
이수역점,서울특별시 서초구 동작대로 112 (방배동),서초구,37.4866077,126.9830137
내방역점,서울특별시 서초구 방배로 184 (방배동) 대풍빌딩,서초구,37.4900283,126.99249
서초파라곤점,서울특별시 서초구 서초대로74길 29 (서초동) 서초파라곤,서초구,37.4949505,127.0274412
서울아트센터점,서울특별시 서초구 남부순환로 2395 (서초동) 호경빌딩,서초구,37.4806827,127.01238
서초중앙로점,서울특별시 서초구 서초중앙로 225,서초구,37.5016656,127.0115771
센트럴시티점,서울특별시 서초구 신반포로 176 (반포동),서초구,37.5039351,127.002413
강남삼성타운점,서울특별시 서초구 서초대로78길 24 (서초동),서초구,37.4955507,127.0277674
방배역점,서울특별시 서초구 방배로 84 (방배동),서초구,37.4819952,126.9976577
반포역점,서울특별시 서초구 신반포로 257 (잠원동) 신반포11차상가,서초구,37.508618,127.0119428
남부터미널점,"서울특별시 서초구 서초중앙로 26, 래미안서초유니빌 1층 101호 (서초동)",서초구,37.4846962,127.0170065
뉴코아강남점,서울특별시 서초구 잠원로 69 (잠원동) 킴스클럽,서초구,37.5102644,127.0069888
강남서초초교점,"서울특별시 서초구 서초대로77길 27, 유빌딩 1,2층 (서초동)",서초구,37.5001007,127.0255366
교대점,서울특별시 서초구 서초중앙로 118 (서초동),서초구,37.4924002,127.0142448
하이브랜드점,"서울특별시 서초구 매헌로 16, 리빙관 101호 (양재동)",서초구,37.4631951,127.0366233
신논현역점,서울특별시 서초구 강남대로 483 (반포동) 청호빌딩,서초구,37.505336,127.0236717
영동2교점,"서울특별시 서초구 논현로 139, 대흥빌딩 (양재동)",서초구,37.4820058,127.0426083
남부터미널역5번출구점,서울특별시 서초구 효령로 274 (서초동),서초구,37.4844016,127.0142312
서래마을입구점,서울특별시 서초구 서래로 48 (반포동),서초구,37.4992809,126.9985742
몬테소리점,서울특별시 서초구 강남대로 399 (서초동),서초구,37.4982763,127.0268507
서초역점,서울특별시 서초구 반포대로 118 (서초동),서초구,37.4906702,127.0086306
교대법원점,서울특별시 서초구 서초중앙로 164 (서초동),서초구,37.4963753,127.0133991
강남GT타워점,"서울특별시 서초구 서초대로 411, GT타워 (서초동)",서초구,37.4979716,127.0259786
서초동점,"서울특별시 서초구 남부순환로339길 64, 현우빌딩 1층 (서초동)",서초구,37.4859281,127.021568
서울교대점,"서울특별시 서초구 서초중앙로 64, 1층 (서초동)",서초구,37.4874525,127.0151984
강남에비뉴점,"서울특별시 서초구 서초대로77길 62, 강남역아이파크 B102~B105 (서초동)",서초구,37.5027557,127.0239029
반포자이점,서울특별시 서초구 잠원로 24 (반포동),서초구,37.5071118,127.0098751
서초태우빌딩점,서울특별시 서초구 강남대로 285 (서초동),서초구,37.4886783,127.0314805
교대역3번출구점,서울특별시 서초구 서초중앙로24길 10 (서초동),서초구,37.4944403,127.0148588
반포원베일리점,서울특별시 서초구 반포대로 291 (반포동),서초구,37.5049309,126.9995048
양재역신분당역사점,서울특별시 서초구 남부순환로 2585 신분당선 양재역 지하1층,서초구,37.4839347,127.0345442
강남역우송빌딩점,서울특별시 서초구 서초대로73길 7 (서초동),서초구,37.4981375,127.0252957
서이초교사거리점,서울특별시 서초구 사임당로 143 (서초동),서초구,37.4918563,127.0252522
서울웨이브아트센터점,서울특별시 서초구 잠원로 145-35 (잠원동),서초구,37.5186905,127.0070359
길음역점,서울특별시 성북구 정릉로 376 (돈암동),성북구,37.6020736,127.0253655
미아이마트점,서울특별시 성북구 도봉로 17 (길음동),성북구,37.6108546,127.0299225
종암DT점,서울특별시 성북구 종암로 17 (종암동),성북구,37.5919109,127.0360898
미아점,서울특별시 성북구 동소문로 314 (하월곡동),성북구,37.6076219,127.0293214
성신여대정문점,서울특별시 성북구 보문로34길 62 (동선동2가),성북구,37.5908568,127.0188736
종암점,서울특별시 성북구 종암로 122 (종암동),성북구,37.6011698,127.0339268
삼선교점,서울특별시 성북구 동소문로 10 (동소문동2가),성북구,37.5887382,127.0073399
월곡역점,"서울특별시 성북구 화랑로 76, 101-1호 (하월곡동)",성북구,37.6018543,127.0405332
고대점,서울특별시 성북구 고려대로24길 51 (안암동5가),성북구,37.5839306,127.0297329
현대미아점,서울특별시 성북구 동소문로 315 (길음동) 지하1층,성북구,37.6084082,127.0287466
성신여대점,서울특별시 성북구 동소문로24길 12 (동선동1가),성북구,37.5931535,127.0184313
안암역점,서울특별시 성북구 고려대로 102-2 (안암동5가),성북구,37.5861092,127.0307665
한성대입구역점,서울특별시 성북구 성북로 11 (성북동1가),성북구,37.5890159,127.0048919
길음뉴타운점,"서울특별시 성북구 길음로 11 (길음동, 길음역롯데캐슬트윈골드아파트)",성북구,37.6038013,127.0234729
고대안암병원점,서울특별시 성북구 고려대로 73 (안암동5가),성북구,37.5870165,127.0263537
장위뉴타운점,서울특별시 성북구 장월로38길 4 (장위동),성북구,37.6180026,127.0515499
성신여대입구역점,서울특별시 성북구 동소문로 105 (동선동4가),성북구,37.5930958,127.0167862
송파나루역DT점,서울특별시 송파구 오금로 142 (송파동),송파구,37.5108922,127.11027
송파헬리오시티점,"서울특별시 송파구 송파대로 345 (가락동, 헬리오시티)",송파구,37.4976183,127.1072604
잠실시그마타워점,서울특별시 송파구 올림픽로 289 (신천동),송파구,37.5145775,127.1025391
문정법원로R점,서울특별시 송파구 송파대로 201 (문정동),송파구,37.4878287,127.1206324
송파개롱역점,서울특별시 송파구 오금로 420 (가락동),송파구,37.4969986,127.1362955
문정하비오점,"서울특별시 송파구 송파대로 111 (문정동, 파크하비오) 204동 104호~107호",송파구,37.4805094,127.1232611
문정역점,"서울특별시 송파구 송파대로 167 (문정동)테라타워 B동 137호~139호,204호",송파구,37.4848354,127.1210395
잠실대교남단R점,서울특별시 송파구 송파대로 570 타워 730 1층,송파구,37.5157873,127.0991124
송파위례점,"서울특별시 송파구 위례광장로 230 (장지동, 위례2차아이파크)",송파구,37.4800734,127.1437404
송파방이DT점,서울특별시 송파구 오금로 241 (방이동),송파구,37.5065501,127.1205022
올림픽평화의문점,서울특별시 송파구 위례성대로 38 (방이동) 해태그린피아빌라트,송파구,37.5157054,127.1165149
송파아이파크점,서울특별시 송파구 법원로 55 (문정동),송파구,37.479885,127.1217526
송파사거리점,서울특별시 송파구 송파대로 386 (송파동),송파구,37.5022812,127.1103712
석촌서호점,서울특별시 송파구 석촌호수로 176 (삼전동),송파구,37.5063728,127.096628
문정로데오점,서울특별시 송파구 동남로 141 (가락동),송파구,37.4919038,127.1262653
올림픽훼미리점,서울특별시 송파구 중대로 68 (문정동),송파구,37.4915772,127.1164484
올림픽공원남문점,서울특별시 송파구 위례성대로 102 (방이동),송파구,37.5132837,127.1231808
방이역점,"서울특별시 송파구 마천로 53, 1~2층 (오금동)",송파구,37.5085536,127.1266733
석촌호수점,서울특별시 송파구 석촌호수로 262 (송파동),송파구,37.5094596,127.105281
잠실푸르지오월드점,"서울특별시 송파구 올림픽로35가길 9, 잠실푸르지오월드마크 1층 (신천동)",송파구,37.5173947,127.1036837
잠실새내역점,서울특별시 송파구 올림픽로 96 (잠실동),송파구,37.5114713,127.0812295
잠실역점,"서울특별시 송파구 송파대로 562 (신천동, 웰리스타워,삼성웰리스아파트) 1층,2층",송파구,37.515334,127.0995586
갤러리아팰리스점,"서울특별시 송파구 올림픽로 212, 갤러리아 팰리스 (잠실동)",송파구,37.5111896,127.0939713
아시아선수촌점,서울특별시 송파구 백제고분로 69 (잠실동),송파구,37.51053,127.07905
올림픽아파트점,서울특별시 송파구 양재대로 1220 (방이동),송파구,37.5153388,127.1332661
가락본동점,서울특별시 송파구 송파대로30길 13 (가락동),송파구,37.4948903,127.1187969
석촌역점,"서울특별시 송파구 백제고분로 358, 1층 (석촌동)",송파구,37.5043026,127.1061158
가락시장역점,"서울특별시 송파구 중대로 121, 롯데캐슬 파인힐 1층 (가락동)",송파구,37.4943645,127.1214157
가든파이브점,서울특별시 송파구 충민로 10 (문정동) 가든파이브툴,송파구,37.4786598,127.1189685
문정역2번출구점,서울특별시 송파구 문정로 1 (문정동),송파구,37.4863716,127.1230161
잠실본동점,"서울특별시 송파구 백제고분로 91 (잠실동), 1층",송파구,37.5086574,127.0795058
송파NC점,서울특별시 송파구 충민로 66 (문정동) 가든파이브라이프 패션관1층,송파구,37.4776148,127.1249617
송파거여역점,서울특별시 송파구 오금로 493 (거여동),송파구,37.4936609,127.1437006
몽촌토성역점,서울특별시 송파구 위례성대로 6 (방이동),송파구,37.5168472,127.1131699
송파KT점,"서울특별시 송파구 잠실로 209 (신천동), 오피스빌딩 1층 2~4호",송파구,37.513871,127.1063644
문정법조타운 한양타워점,서울특별시 송파구 법원로11길 12 (문정동),송파구,37.4860521,127.1178671
송파마천사거리DT점,서울특별시 송파구 거마로 78 (마천동),송파구,37.499758,127.1476493
목동파리공원점,서울특별시 양천구 목동동로 377 (목동),양천구,37.5353221,126.8788616
등촌역점,서울특별시 양천구 공항대로 566 (목동) 1층 2층,양천구,37.5489293,126.8680891
목동행복한점,서울특별시 양천구 목동동로 309 (목동),양천구,37.52924,126.8759808
신정DT점,서울특별시 양천구 신월로 341 (신정동),양천구,37.522009,126.8588611
목동역점,서울특별시 양천구 목동로 203 (신정동) 1층일부,양천구,37.5267086,126.8638157
목동오목로점,"서울특별시 양천구 오목로 279 (목동) 102,103,104,105호",양천구,37.5259191,126.8684017
목동8단지점,서울특별시 양천구 목동서로 299 (신정동),양천구,37.5205739,126.8688442
오목교역점,서울특별시 양천구 오목로 354 (목동),양천구,37.5235668,126.8763976
신월IC DT점,서울특별시 양천구 남부순환로 430 (신월동),양천구,37.529508,126.8321501
목동7단지점,서울특별시 양천구 목동서로 213 (목동) 세신비젼프라자,양천구,37.5280187,126.8706302
목동5단지점,"서울특별시 양천구 목동동로 411, 1동 116호(목동, 부영그린타운3차)",양천구,37.5367263,126.8822137
목동점,서울특별시 양천구 목동서로 67 (목동) 우성에펠타운,양천구,37.5363941,126.878557
현대목동점,"서울특별시 양천구 목동동로 257 (목동, 현대하이페리온) 지하2층",양천구,37.5269242,126.8744941
목동SBS점,"서울특별시 양천구 목동서로 161 (목동), 1/2층 일부",양천구,37.5291694,126.8735376
목동트라팰리스점,서울특별시 양천구 오목로 299 (목동),양천구,37.52609,126.871084
목동10단지점,"서울특별시 양천구 목동서로 401 (신정동, 대림아크로빌), 상가A동 101,101-1호",양천구,37.5153094,126.8597299
신월동DT점,서울특별시 양천구 남부순환로 319 (신월동),양천구,37.5382766,126.8270914
타임스퀘어R점,서울특별시 영등포구 영중로 15 지하 1층 (영등포동4가),영등포구,37.5176343,126.9042788
샛강역점,서울특별시 영등포구 여의대방로 376 (여의도동),영등포구,37.5181886,126.9313545
영등포역점,서울특별시 영등포구 경인로 870 (영등포동1가),영등포구,37.5169829,126.909283
당산대로점,서울특별시 영등포구 양평로 22 (당산동6가),영등포구,37.5331573,126.9039335
여의도IFC몰(L1)R점,서울특별시 영등포구 국제금융로 10 (여의도동) 지하1층 178호,영등포구,37.5255723,126.9266142
여의도KBS R점,서울특별시 영등포구 의사당대로 26 (여의도동),영등포구,37.5265371,126.9181067
여의도화재보험점,서울특별시 영등포구 국제금융로6길 38 (여의도동),영등포구,37.5213869,126.9260068
국회대로점,서울특별시 영등포구 국회대로 786 (여의도동),영등포구,37.5302889,126.9196
영등포KT점,서울특별시 영등포구 영중로 119 (영등포동8가),영등포구,37.5268606,126.9051656
여의도공원R점,서울특별시 영등포구 여의공원로 101 (여의도동),영등포구,37.5292711,126.9248993
국회의사당역점,서울특별시 영등포구 의사당대로 8 (여의도동),영등포구,37.527872,126.9169088
여의도역R점,서울특별시 영등포구 의사당대로 83 (여의도동) 1층,영등포구,37.5233663,126.9234407
선유동이레빌딩점,서울특별시 영등포구 선유동2로 57 (양평제1동) 이레빌딩,영등포구,37.5338308,126.8968868
동여의도점,서울특별시 영등포구 국제금융로 86 (여의도동) 롯데캐슬 아이비,영등포구,37.5197969,126.9321087
여의도ABL타워점,서울특별시 영등포구 의사당대로 147 (여의도동) 알리안츠타워,영등포구,37.5188146,126.9278415
영등포신길점,"서울특별시 영등포구 신길로 137 (신길동) 1,2층",영등포구,37.5046015,126.9100577
문래역점,서울특별시 영등포구 당산로 34 (문래동3가),영등포구,37.5174699,126.896573
당산점,서울특별시 영등포구 양평로 64 (당산동6가),영등포구,37.535143,126.8999717
여의도한양증권점,서울특별시 영등포구 국제금융로6길 7 (여의도동) 한양증권,영등포구,37.5224222,126.9291069
여의도일신점,서울특별시 영등포구 은행로 11 (여의도동) 1층 1부,영등포구,37.527981,126.9201871
하이테크시티점,서울특별시 영등포구 경인로 775 (문래동3가) 에이스하이테크시티,영등포구,37.5147464,126.8975368
여의도점,서울특별시 영등포구 국제금융로2길 28 (여의도동),영등포구,37.5241028,126.9244858
롯데캐슬여의도점,"서울특별시 영등포구 의사당대로 127 (여의도동, 롯데캐슬엠파이어) 1층 104호",영등포구,37.5204236,126.9265677
문래동점,"서울특별시 영등포구 선유로 64, 대창타운빌 1층 (문래동3가)",영등포구,37.5196346,126.8896971
여의도호성점,"서울특별시 영등포구 여의대방로65길 24, 호성빌딩 1층 (여의도동)",영등포구,37.520444,126.9293053
타임스퀘어B2점,"서울특별시 영등포구 영중로 15, 지하2층 (영등포동4가)",영등포구,37.5176343,126.9042788
영등포본동점,서울특별시 영등포구 영등포로 254 (영등포동3가),영등포구,37.5186836,126.9095981
타임스퀘어2F점,서울특별시 영등포구 영중로 15 지상2층 (영등포동4가),영등포구,37.5176343,126.9042788
여의도의사당점,서울특별시 영등포구 국회대로74길 12 (여의도동),영등포구,37.5300836,126.921061
여의도IFC(1F)점,서울특별시 영등포구 국제금융로 10 (여의도동),영등포구,37.5255723,126.9266142
여의도교직원공제회점,서울특별시 영등포구 여의나루로 50 (여의도동),영등포구,37.5218052,126.9256512
선유도역 1번출구점,서울특별시 영등포구 양평로 128 (양평동5가)양평로 128,영등포구,37.5382824,126.8936881
영등포시장역점,서울특별시 영등포구 영중로 79 (영등포동7가),영등포구,37.5234736,126.904906
영등포구청역점,서울특별시 영등포구 국회대로 558,영등포구,37.5277473,126.8961241
서울양평역점,"서울특별시 영등포구 선유서로24길 6 (양평동1가, 영등포 중흥 S-CLASS)",영등포구,37.5236621,126.8866234
영등포시장교차로점,서울특별시 영등포구 영중로 45 (영등포동6가),영등포구,37.5204602,126.9044707
더현대서울(B2)R점,서울특별시 영등포구 여의대로 108 (여의도동),영등포구,37.5266691,126.9271941
여의도브라이튼점,"서울특별시 영등포구 국제금융로 39 (여의도동, 브라이튼 여의도), 1층",영등포구,37.5241513,126.9298964
여의도TP타워점,서울특별시 영등포구 의사당대로 96 (여의도동),영등포구,37.5215212,126.9228725
당산역사거리점,서울특별시 영등포구 양평로 47 (당산동5가),영등포구,37.5338752,126.9009929
신풍역점,서울특별시 영등포구 신풍로 23 (신길동),영등포구,37.5003741,126.9083747
불광역점,서울특별시 은평구 통일로 715 (대조동),은평구,37.6094203,126.9303002
구파발사거리점,서울특별시 은평구 진관3로 21 은평엘크루 101동 105-108호,은평구,37.6394555,126.9191948
연신내역사거리점,서울특별시 은평구 통일로 842 (불광동),은평구,37.618682,126.9220944
연신내점,서울특별시 은평구 통일로 867 (갈현동),은평구,37.6202446,126.9199151
구파발역점,서울특별시 은평구 진관2로 12,은평구,37.6342576,126.918551
은평구청입구점,서울특별시 은평구 은평로 170 (응암동),은평구,37.601101,126.9266658
은평이마트점,서울특별시 은평구 은평로 111 (응암동),은평구,37.6008422,126.9205287
구산역점,서울특별시 은평구 연서로 146 (대조동),은평구,37.6118281,126.9177227
불광역8번출구점,서울특별시 은평구 통일로 746 (불광동),은평구,37.6120244,126.9290005
응암역2번출구점,서울특별시 은평구 연서로 17 (역촌동),은평구,37.6005976,126.9156931
수색점,서울특별시 은평구 수색로 216 (수색동),은평구,37.5807579,126.8996494
새절역점,서울특별시 은평구 증산로 371 (신사동),은평구,37.5895378,126.9128851
더북한산점,서울특별시 은평구 대서문길 24-11 (진관동),은평구,37.6554604,126.9475542
녹번역점,"서울특별시 은평구 통일로 636 (녹번동) 110,111,112,113,114,115호",은평구,37.6035172,126.9353113
진관DT점,서울특별시 은평구 연서로 645 (진관동),은평구,37.6501783,126.9361598
연신내역5번출구점,"서울특별시 은평구 연서로 222 (대조동), 1층",은평구,37.6181534,126.9203896
연합뉴스점,서울특별시 종로구 율곡로2길 25 (수송동),종로구,37.5744475,126.9804414
혜화역점,서울특별시 종로구 대학로12길 4 (동숭동)1~2층,종로구,37.5825206,127.0021889
경희궁로점,서울특별시 종로구 새문안로3길 15 (당주동),종로구,37.5717083,126.9723185
강북삼성병원점,서울특별시 종로구 새문안로 29 (평동) C관 5층,종로구,37.5684083,126.96775
종로평창동점,서울특별시 종로구 평창12길 3 (평창동),종로구,37.6061821,126.9672314
광화문우체국점,서울특별시 종로구 종로 6 (서린동),종로구,37.5698231,126.9781051
종로R점,서울특별시 종로구 종로 51 (종로2가),종로구,37.5707534,126.9836385
독립문역점,서울특별시 종로구 송월길 155 경희궁자이 4단지 1층 팰리스애비뉴 4114~4119호,종로구,37.5716749,126.9612654
정부서울청사R점,서울특별시 종로구 새문안로5가길 28 (적선동),종로구,37.5744582,126.9736144
종로구청점,서울특별시 종로구 삼봉로 71 (수송동),종로구,37.5726674,126.9811142
북촌로점,서울특별시 종로구 북촌로4길 23 (계동),종로구,37.5794488,126.9864673
종로수송점,서울특별시 종로구 종로5길 30 (청진동) 1~3층,종로구,37.5716827,126.9807065
새문안로점,서울특별시 종로구 새문안로 92 (신문로1가) 광화문오피시아빌딩,종로구,37.5697325,126.9749335
안국점,서울특별시 종로구 북촌로 5-1 (재동),종로구,37.5773808,126.985657
삼청동점,서울특별시 종로구 삼청로 111-1 (삼청동),종로구,37.5853638,126.9817558
광화문D타워점,서울특별시 종로구 종로3길 17 (청진동) D타워,종로구,37.5710184,126.9789694
적선점,"서울특별시 종로구 새문안로5길 55, 노스게이트빌딩 1층 (적선동)",종로구,37.5751331,126.9739852
인사점,서울특별시 종로구 인사동길 14 (인사동),종로구,37.5721952,126.986963
광화문점,서울특별시 종로구 세종대로 167 (세종로),종로구,37.5712588,126.9763276
성대입구점,서울특별시 종로구 창경궁로 235 (명륜3가),종로구,37.5829835,126.9983762
스페이스본점,서울특별시 종로구 사직로8길 4 (사직동) 광화문 풍림스페이스본,종로구,37.5744035,126.9686008
주얼리시티점,서울특별시 종로구 종로 183 (인의동) 효성주얼리시티,종로구,37.571447,126.99832
종각점,서울특별시 종로구 종로 64 (종로2가),종로구,37.5699645,126.9845563
동숭로아트점,서울특별시 종로구 동숭길 110 (동숭동),종로구,37.5829955,127.003913
종로관철점,"서울특별시 종로구 종로12길 21, 2층 (관철동)",종로구,37.5690846,126.9860066
경복궁역점,"서울특별시 종로구 자하문로4길 6, 1층 (통의동)",종로구,37.5771917,126.9726447
이마빌딩점,서울특별시 종로구 종로1길 42 (수송동),종로구,37.5739044,126.9789959
마로니에공원점,"서울특별시 종로구 대학로 116, 1-2층 (동숭동)",종로구,37.581561,127.0023622
종로3가점,"서울특별시 종로구 종로 113-1, 1-4층 (종로3가)",종로구,37.5706002,126.9902296
대학로점,"서울특별시 종로구 대학로 57, 홍익대학교 대학로캠퍼스 內 (연건동)",종로구,37.5764627,127.0013729
경복궁사거리점,"서울특별시 종로구 율곡로 6, B동 101호(중학동, 트윈트리타워)",종로구,37.5754403,126.9797454
종로관수점,서울특별시 종로구 삼일대로20길 13 (관수동),종로구,37.5697634,126.9886874
광화문교보문고점,서울특별시 종로구 종로 1 (종로1가),종로구,37.5709477,126.9778787
정동점,서울특별시 종로구 새문안로 42 (신문로2가),종로구,37.5685772,126.9700684
종로플레이스점,서울특별시 종로구 창경궁로 120 (인의동),종로구,37.5729895,126.9982671
강북삼성병원1층점,서울특별시 종로구 새문안로 29 (평동) A관 1층,종로구,37.5684083,126.96775
동숭길입구점,서울특별시 종로구 대학로 146 (혜화동),종로구,37.5842573,127.0020351
서울대치과병원점,서울특별시 종로구 대학로 101 서울대학교 치과병원 신관1층,종로구,37.5797151,126.9990168
서대문적십자점,서울특별시 종로구 새문안로 9 (평동) 서울적십자병원 별관 상가동 1층 B호,종로구,37.5671805,126.9669974
서대문역점,서울특별시 종로구 통일로 134 (평동),종로구,37.5667937,126.9662598
숭례문북창점,서울특별시 중구 세종대로12길 12 (남대문로4가),중구,37.5616378,126.9769149
을지로4가역점,서울특별시 중구 을지로 170 (을지로4가),중구,37.5661387,126.9973271
동대문두타점,서울특별시 중구 장충단로 275 (을지로6가),중구,37.5688912,127.0087831
대한상공회의소R점,서울특별시 중구 세종대로 39 (남대문로4가) 1층,중구,37.5607137,126.9737753
국립중앙의료원점,서울특별시 중구 을지로 251 (을지로6가),중구,37.5665549,127.0062707
동국대점,서울특별시 중구 서애로 1길 11,중구,37.5613426,126.9985981
동대문공원점,서울특별시 중구 장충단로 229 (광희동1가),중구,37.5652211,127.0072391
을지로국제빌딩점,서울특별시 중구 남대문로 109 (다동),중구,37.5669868,126.9822586
동대입구역점,서울특별시 중구 장충단로 166 (장충동1가),중구,37.5596514,127.0061698
신당역사거리점,서울특별시 중구 다산로 258 (흥인동),중구,37.5657465,127.0166374
연세세브란스점,서울특별시 중구 통일로 10 (남대문로5가),중구,37.5570913,126.9736575
회현역점,서울특별시 중구 퇴계로 72 (회현동) 리더스뷰남산,중구,37.5592014,126.9808787
을지로경기빌딩점,서울특별시 중구 남대문로10길 9 (삼각동) 경기빌딩,중구,37.5672092,126.9832338
을지로2가점,서울특별시 중구 삼일대로 358 (을지로2가),중구,37.566489,126.9881038
신세계본점6F점,서울특별시 중구 퇴계로 77 (충무로1가),중구,37.5603276,126.980743
서울중앙우체국점,서울특별시 중구 소공로 70 (충무로 1가) 서울 중앙 우체국,중구,37.5615629,126.9821154
한국프레스센터점,서울특별시 중구 세종대로 124 (태평로1가),중구,37.5674232,126.9778908
명동중앙로점,서울특별시 중구 명동길 60 (명동 2가),중구,37.5637789,126.9857504
약수역점,서울특별시 중구 다산로 129 (신당동),중구,37.5554327,127.0107473
중구저동점,서울특별시 중구 수표로 34 (저동2가),중구,37.5643849,126.9903646
명동길점,서울특별시 중구 명동10길 41,중구,37.5620619,126.9858811
서소문로점,서울특별시 중구 서소문로 120 (서소문동) 대한빌딩,중구,37.5629139,126.9746764
신당역점,"서울특별시 중구 퇴계로 385, 1층 (흥인동)",중구,37.565407,127.0143796
명동메트로점,서울특별시 중구 명동9가길 14 (을지로1가) 메트로호텔,중구,37.5651466,126.9837467
숭례문점,"서울특별시 중구 세종대로 17, 그레이츠 숭례 1층 (남대문로5가)",중구,37.5586299,126.9732669
순화동더샵점,"서울특별시 중구 칠패로 27, 1층 (순화동)",중구,37.5599339,126.9719947
환구단점,서울특별시 중구 소공로 112 (소공동),중구,37.5647589,126.9792265
무교동점,서울특별시 중구 무교로 21 (무교동) 코오롱빌딩 1층,중구,37.5678575,126.9787595
문화일보점,서울특별시 중구 새문안로 22 (충정로1가) 문화일보,중구,37.5670972,126.968627
태평로점,"서울특별시 중구 세종대로 72, 대영빌딩 1층 (태평로2가)",중구,37.5624824,126.9768118
퍼시픽타워점,"서울특별시 중구 세종대로9길 41, 퍼시픽타워 1층 (서소문동)",중구,37.5613584,126.9730165
남산단암점,"서울특별시 중구 소월로 10, 단암빌딩 (남대문로5가)",중구,37.558538,126.9754231
황학캐슬점,서울특별시 중구 청계천로 400 (황학동) 롯데캐슬베네치아,중구,37.5707646,127.0211246
을지로삼화타워점,서울특별시 중구 을지로5길 16 (을지로2가) 1층,중구,37.5669547,126.9849157
소공로점,"서울특별시 중구 남대문로7길 19, 삼영빌딩 1층 일부 (소공동)",중구,37.5637733,126.9807789
을지로한국빌딩점,"서울특별시 중구 을지로 50, 1층 (을지로 2가)",중구,37.5656521,126.9833131
시청점,"서울특별시 중구 을지로 19, 삼성화재삼성빌딩 1층 (을지로1가)",중구,37.566308,126.9799748
명동역점,"서울특별시 중구 퇴계로 101, 건물 전체 (충무로 1가)",중구,37.5608681,126.9831157
명동입구점,서울특별시 중구 남대문로 68-1 (명동2가),중구,37.5632523,126.9822826
장충라운지R점,서울특별시 중구 장충단로4길 25 (장충동1가),중구,37.5610988,127.0074602
충무로점,서울특별시 중구 충무로 3 (필동1가),중구,37.5614912,126.9928779
이마트타워점,서울특별시 중구 세종대로7길 37 (순화동) 1층,중구,37.5607551,126.9724953
동호로점,서울특별시 중구 동호로 171 (신당동),중구,37.5534498,127.0113266
무교로점,서울특별시 중구 무교로 15 (무교동),중구,37.567289,126.9789374
청계크리스탈스퀘어점,서울특별시 중구 청계천로 106 (수표동),중구,37.5676319,126.9892933
숭례문SG타워점,서울특별시 중구 세종대로 14 (남대문로5가),중구,37.5578385,126.9744151
세종대로점,서울특별시 중구 세종대로 135-5 (태평로1가),중구,37.5686041,126.9764359
동대문디자인플라자점,서울특별시 중구 을지로 281 (을지로7가) 디자인장터,중구,37.5675466,127.0099323
별다방점,서울특별시 중구 퇴계로 100 (회현동2가),중구,37.56025,126.982925
포포인츠명동점,서울특별시 중구 삼일대로10길 36 (저동2가),중구,37.56559,126.9894338
명동남산점,서울특별시 중구 퇴계로 132 (남산동3가),중구,37.5607536,126.9864812
명일역점,서울특별시 강동구 양재대로 1647 (명일동),강동구,37.5525606,127.1437829
강동구청DT점,서울특별시 강동구 성내로 32 (성내동),강동구,37.5291904,127.1238062
강동암사DT점,서울특별시 강동구 고덕로 43 (암사동),강동구,37.5551043,127.130015
굽은다리역점,"서울특별시 강동구 양재대로 1568 (명일동, 원일타워)",강동구,37.545419,127.143201
강동역점,"서울특별시 강동구 천호대로 1089 (천호동, 강동 헤르셔)",강동구,37.5365922,127.1334297
둔촌동점,서울특별시 강동구 양재대로 1303 (성내동) 평원빌딩,강동구,37.5227722,127.1339673
천호로데오점,서울특별시 강동구 천호대로 1037 (천호동),강동구,37.5378393,127.1273553
천호이마트점,서울특별시 강동구 천호대로 1015-14 (천호동) 이마트별관,강동구,37.5389654,127.1252538
길동역점,서울특별시 강동구 양재대로 1487 (길동),강동구,37.5387188,127.14008
상일동점,"서울특별시 강동구 상일로10길 36, 1~2층 (상일동)",강동구,37.5508328,127.1741318
천호역점,"서울특별시 강동구 천호대로 1012, 태승빌딩 (성내동)",강동구,37.5381091,127.1242277
명일이마트점,서울특별시 강동구 동남로75길 5 (명일동) 명일이마트별관주차장,강동구,37.5540095,127.1560171
상일동역점,"서울특별시 강동구 고덕로 399 (고덕동, 고덕센트럴푸르지오)",강동구,37.5577308,127.1701747
천호사거리점,서울특별시 강동구 올림픽로 651 (천호동),강동구,37.5397472,127.1233821
강일역점,"서울특별시 강동구 고덕로 429 (강일동), 1층",강동구,37.5575025,127.1735035
올림픽공원북2문점,서울특별시 강동구 강동대로 199 (성내동),강동구,37.5242312,127.1287114
암사역점,서울특별시 강동구 올림픽로 786 (암사동),강동구,37.5511474,127.128204
강동강일점,서울특별시 강동구 아리수로93나길 54 (강일동),강동구,37.5722002,127.174853
천호대로길동점,서울특별시 강동구 천호대로 1131 거산 유팰리스,강동구,37.5347915,127.1372467
구로디지털타워점,서울특별시 구로구 디지털로32길 30 (구로동),구로구,37.4834351,126.8964929
오류동역점,서울특별시 구로구 경인로 216 (오류동),구로구,37.496159,126.8448848
구로디지털로점,"서울특별시 구로구 디지털로33길 11, 에이스테크노8차 1층 (구로동)",구로구,37.4856729,126.8954779
구로에이스점,"서울특별시 구로구 디지털로 285, 에이스트윈타워1차 103호 (구로동)",구로구,37.4844927,126.8945184
구로하이엔드점,"서울특별시 구로구 디지털로26길 5, 에이스하이엔드타워1차 103호 (구로동)",구로구,37.4816106,126.8934794
구로호텔점,"서울특별시 구로구 디지털로32길 72, 구로호텔 1층 (구로동)",구로구,37.4831795,126.8988477
구로고척점,서울특별시 구로구 경인로 387 (고척동),구로구,37.4970869,126.8631425
구로NC점,서울특별시 구로구 구로중앙로 152 (구로동) 구로NC,구로구,37.5011324,126.8828
구로오류DT점,서울특별시 구로구 서해안로 2233 (오류동),구로구,37.4881418,126.8344888
구로구청점,"서울특별시 구로구 가마산로 232 (구로동, 스페스큐브), B101호",구로구,37.4938088,126.8867901
고척아이파크점,"서울특별시 구로구 경인로43길 49 (고척동, 고척아이파크), 1층 D-101호",구로구,37.4980688,126.8599135
신도림힐스테이트점,서울특별시 구로구 경인로 625 (신도림동),구로구,37.5070742,126.8846468
현대디큐브2F점,서울특별시 구로구 경인로 662 (신도림동),구로구,37.5081311,126.8883839
현대디큐브B2점,서울특별시 구로구 경인로 662 (신도림동),구로구,37.5081311,126.8883839
답십리역점,서울특별시 동대문구 천호대로 263 (답십리동),동대문구,37.5685076,127.0511357
경희대삼거리점,서울특별시 동대문구 회기로 141 (회기동),동대문구,37.5915721,127.0520424
외대정문점,서울특별시 동대문구 이문로 93 (이문동),동대문구,37.5953841,127.0592494
신설동역점,서울특별시 동대문구 왕산로 19 (신설동),동대문구,37.5767234,127.0255333
회기역사거리점,서울특별시 동대문구 이문로 37 (회기동),동대문구,37.5908164,127.0561285
장한평역점,서울특별시 동대문구 장한로 10 (장안동),동대문구,37.5623559,127.0655112
경희대점,서울특별시 동대문구 경희대로 16-1 (회기동),동대문구,37.5929057,127.0528766
청량리역롯데캐슬스카이점,"서울특별시 동대문구 답십리로 27 (전농동, 청량리역 롯데캐슬 SKY-L65)",동대문구,37.5794114,127.0453793
경희의료원점,서울특별시 동대문구 경희대로 23 (회기동),동대문구,37.5941195,127.051852
경동1960점,서울특별시 동대문구 고산자로36길 3 (제기동),동대문구,37.5790378,127.0391429
사이버한국외대점,서울특별시 동대문구 휘경로 6 (이문동),동대문구,37.5960424,127.0606406
청량리역사점,서울특별시 동대문구 왕산로 214 (전농동) 청량리역사 Connect Place6층,동대문구,37.5841971,127.051139
답십리초교사거리점,서울특별시 동대문구 전농로 38 (답십리동),동대문구,37.568279,127.057299
장안사거리점,서울특별시 동대문구 답십리로 267 (장안동),동대문구,37.5727128,127.0700662
서울숲역점,서울특별시 성동구 왕십리로 50 (성수동1가) 1층,성동구,37.5418864,127.0449128
금호역점,서울특별시 성동구 동호로 99 (금호동4가),성동구,37.5480373,127.0153658
뚝섬역점,서울특별시 성동구 아차산로 42 (성수동1가),성동구,37.5464768,127.0490393
황학사거리점,"서울특별시 성동구 왕십리로 410 (하왕십리동, 센트라스)",성동구,37.5665508,127.0247865
성수역점,서울특별시 성동구 성수이로 94 (성수동2가),성동구,37.5432346,127.0569704
상왕십리역점,서울특별시 성동구 왕십리로 382 (하왕십리동),성동구,37.5651103,127.0280199
왕십리역점,서울특별시 성동구 왕십리로 326 (도선동),성동구,37.5627619,127.0339281
한양대점,"서울특별시 성동구 왕십리로 225 (행당동) 1,2층",성동구,37.5571645,127.0421324
엔터식스점,서울특별시 성동구 왕십리광장로 17 (행당동),성동구,37.5614086,127.0384812
신금호역점,서울특별시 성동구 금호로 158-1 (금호동1가) 1~5층 전체,성동구,37.5549766,127.020213
뚝섬역교차로점,서울특별시 성동구 아차산로 6 (성수동1가),성동구,37.5476731,127.0451043
왕십리역9번출구점,서울특별시 성동구 고산자로 234 (행당동),성동구,37.5605386,127.0352721
성수점,서울특별시 성동구 아차산로 104 (성수동2가),성동구,37.5444425,127.0554581
옥수점,서울특별시 성동구 독서당로 202 (옥수동),성동구,37.5429959,127.0133515
성수낙낙점,서울특별시 성동구 광나루로8길 31 (성수동2가) 성수낙낙 1층 101~107호,성동구,37.5472098,127.0664373
효창공원앞역점,"서울특별시 용산구 백범로 313 (효창동, 용산 롯데캐슬 센터포레)",용산구,37.5400414,126.963526
서울역서부점,서울특별시 용산구 만리재로 202 (서계동),용산구,37.55495,126.9684599
이태원역점,서울특별시 용산구 이태원로 188 (이태원동),용산구,37.5343166,126.9948197
한강진역R점,서울특별시 용산구 이태원로 252 (한남동),용산구,37.5371022,127.0011334
용산역써밋R점,"서울특별시 용산구 한강대로 69 (한강로2가, 용산푸르지오써밋)",용산구,37.5273235,126.9651744
이촌점,서울특별시 용산구 이촌로 276 (이촌동),용산구,37.5186465,126.9772953
신용산역점,"서울특별시 용산구 한강대로 95 (한강로2가, 래미안용산)",용산구,37.5290927,126.9668857
용산파크타워점,"서울특별시 용산구 서빙고로 67 (용산동5가, 파크타워)",용산구,37.5245254,126.9710502
남영동점,서울특별시 용산구 한강대로 275 (갈월동),용산구,37.5428903,126.9722538
한남동R점,서울특별시 용산구 독서당로 94 (한남동),용산구,37.5347985,127.010957
서울타워점,서울특별시 용산구 남산공원길 105 (용산동2가) YTN서울타워 1층,용산구,37.5510548,126.9878822
서울역동자동점,서울특별시 용산구 한강대로 372 (동자동),용산구,37.5513775,126.9736404
순천향입구점,서울특별시 용산구 대사관로 67 (한남동),용산구,37.5334289,127.0056648
동빙고점,서울특별시 용산구 장문로 12 (동빙고동),용산구,37.5289753,126.9918133
숙대입구역점,서울특별시 용산구 한강대로 291 (갈월동),용산구,37.5442138,126.971931
용산아이파크몰6F점,서울특별시 용산구 한강대로23길 55,용산구,37.5297718,126.9647415
동부이촌동점,서울특별시 용산구 이촌로 198 (이촌동),용산구,37.5210837,126.9690525
숙명여대정문점,서울특별시 용산구 청파로47길 100 (청파동2가) 프라임관B1F(로비층),용산구,37.5459469,126.9645778
용산해링턴스퀘어점,서울특별시 용산구 서빙고로 17 (한강로3가),용산구,37.5257665,126.9678526
경리단길점,서울특별시 용산구 회나무로 3 (이태원동),용산구,37.5385843,126.9874077
서울역사점,서울특별시 용산구 한강대로 405 (동자동) 신-101호,용산구,37.5548376,126.9717326
용산리첸시아점,"서울특별시 용산구 백범로 341 (원효로1가, 리첸시아 용산)",용산구,37.5383556,126.9678941
용산전자랜드점,서울특별시 용산구 청파로 74 (한강로3가),용산구,37.5327771,126.9596573
용산이마트점,서울특별시 용산구 한강대로23길 55 (한강로3가) 용산이마트 지하 2층,용산구,37.5297718,126.9647415
용산아이파크몰1F점,서울특별시 용산구 한강대로23길 55 1층 (한강로3가),용산구,37.5297718,126.9647415
상봉점,"서울특별시 중랑구 상봉로 131 (상봉동, 상봉 듀오트리스 주상복합)",중랑구,37.5975129,127.0922132
중랑역점,서울특별시 중랑구 망우로30길 3 (상봉동),중랑구,37.5930848,127.074771
중랑구청점,서울특별시 중랑구 신내로 72,중랑구,37.6054065,127.0956685
사가정역점,서울특별시 중랑구 면목로 310,중랑구,37.5796409,127.087993
상봉역점,서울특별시 중랑구 망우로 307 (상봉동),중랑구,37.5969454,127.0864785
묵동점,"서울특별시 중랑구 동일로 952 (묵동, 로프트원 태릉입구역) 1층",중랑구,37.6153331,127.0768804
망우동점,서울특별시 중랑구 망우로 407 (망우동),중랑구,37.5995202,127.0975571
양원역점,서울특별시 중랑구 양원역로10길 3 (망우동),중랑구,37.6066537,127.1063598
중화역점,서울특별시 중랑구 봉화산로 35 1층,중랑구,37.6018096,127.0783243
